license_number,provider_name,doing_business_as,license_type,status,address,city,state,zip,county
,,,Home and Community Based Services,Active,,Minneapolis,MN,55401-2503,Hennepin
,,,Home and Community Based Services,Active,,Minneapolis,MN,55401-5508,Hennepin
,,,Child Care Center,Active,,Minneapolis,MN,55401,Hennepin
,,,Home and Community Based Services,Active,,Minneapolis,MN,55401-1040,Hennepin
,,,Home and Community Based Services,Active,,Minneapolis,MN,55401-5505,Hennepin
,,,Family Child Care,Active,,Minneapolis,MN,55402-1640,Hennepin
,,,Child Care Center,Active,,Minneapolis,MN,55402-2550,Hennepin
,,,Home and Community Based Services,Temp Immediate Suspension: Under Appeal as of 09/29/2025,,Minneapolis,MN,55402-4622,Hennepin
,,,Child Care Center,Active,,Minneapolis,MN,55402-5137,Hennepin
,,,Home and Community Based Services,Active,,Minneapolis,MN,55402-3106,Hennepin
,,,Child Caring-Placing Agency,Active,,Minneapolis,MN,55403-3466,Hennepin
,,,Child Care Center,Conditional as of 08/23/2025,,Minneapolis,MN,55403,Hennepin
,,,Home and Community Based Services,Active,,Minneapolis,MN,55403-1720,Hennepin
,,,Adult Day Care Services,Active,,Minneapolis,MN,55403-2513,Hennepin
,,,Child Care Center,Active,,Minneapolis,MN,55403-2033,Hennepin
,,,Child Care Center,Active,,Minneapolis,MN,55403-1205,Hennepin
,,,Substance Use Disorder Treatment,Closed as of 09/05/2025,,Minneapolis,MN,55403-3724,Hennepin
,,,Home and Community Based Services,Closed as of 10/29/2025,,Minneapolis,MN,55403-3747,Hennepin
,,,Substance Use Disorder Treatment,Conditional as of 09/24/2024,,Minneapolis,MN,55403-2723,Hennepin
,,,Certified Child Care Center,Active,,Minneapolis,MN,55403-2535,Hennepin
,,,Intensive Residential Treatment Services and Residential Crisis Stabilization,Active,,Minneapolis,MN,55403-3467,Hennepin
,,,Home and Community Based Services,Active,,Minneapolis,MN,55403-3283,Hennepin
,,,Child Care Center,Active,,Minneapolis,MN,55403-2666,Hennepin
,,,Child Care Center,Active,,Minneapolis,MN,55403-2725,Hennepin
,,,Child Care Center,Active,,Minneapolis,MN,55403-1502,Hennepin
,,,Child Care Center,Active,,Minneapolis,MN,55403-1264,Hennepin
,,,Adult Day Care Services,Active,,Minneapolis,MN,55403-2601,Hennepin
,,,Child Care Center,Active,,Minneapolis,MN,55403-2405,Hennepin
,,,Home and Community Based Services,Active,,Minneapolis,MN,55404-4267,Hennepin
,,,Child Care Center,Active,,Minneapolis,MN,55404,Hennepin
,,,Substance Use Disorder Treatment,Active,,Minneapolis,MN,55404-2101,Hennepin
,,,Home and Community Based Services,Active,,Minneapolis,MN,55404-3490,Hennepin
,,,Home and Community Based Services,Active,,Minneapolis,MN,55404-1551,Hennepin
,,,Home and Community Based Services,Active,,Minneapolis,MN,55404-1808,Hennepin
,,,Home and Community Based Services,Active,,Minneapolis,MN,55404-6607,Hennepin
,,,Substance Use Disorder Treatment,Closed as of 08/28/2025,,Minneapolis,MN,55404-3315,Hennepin
,,,Detox Services,Active,,Minneapolis,MN,55404-2592,Hennepin
,,,Withdrawal Management,Active,,Minneapolis,MN,55404-1901,Hennepin
,,,Home and Community Based Services,Active,,Minneapolis,MN,55404-2575,Hennepin
,,,Home and Community Based Services,Active,,Minneapolis,MN,55404-3831,Hennepin
,,,Home and Community Based Services,Active,,Minneapolis,MN,55404-3331,Hennepin
,,,Child Care Center,Active,,Minneapolis,MN,55404-1437,Hennepin
,,,Home and Community Based Services - Community Residential Setting,Active,,Minneapolis,MN,55404-4025,Hennepin
,,,Substance Use Disorder Treatment,Active,,Minneapolis,MN,55404-1903,Hennepin
,,,Home and Community Based Services,Active,,Minneapolis,MN,55404-2977,Hennepin
,,,Home and Community Based Services,Active,,Minneapolis,MN,55404-3833,Hennepin
,,,Home and Community Based Services,Active,,Minneapolis,MN,55404-2197,Hennepin
,,,Home and Community Based Services,Active,,Minneapolis,MN,55404-2505,Hennepin
,,,Home and Community Based Services,Active,,Minneapolis,MN,55404-6605,Hennepin
,,,Family Child Care,Active,,Minneapolis,MN,55404-3132,Hennepin
,,,Adult Day Care Services,Active,,Minneapolis,MN,55404-3626,Hennepin
,,,Home and Community Based Services,Active,,Minneapolis,MN,55404-0000,Hennepin
,,,Child Care Center,Active,,Minneapolis,MN,55404-3374,Hennepin
,,,Home and Community Based Services,Active,,Minneapolis,MN,55404-5562,Hennepin
,,,Home and Community Based Services,Closed as of 10/15/2025,,Minneapolis,MN,55404-3706,Hennepin
,,,Home and Community Based Services,Denied as of 04/11/2025,,Minneapolis,MN,55404-3869,Hennepin
,,,Home and Community Based Services,Active,,Minneapolis,MN,55404-4118,Hennepin
,,,Home and Community Based Services,Active,,Minneapolis,MN,55404-2910,Hennepin
,,,Home and Community Based Services,Active,,Minneapolis,MN,55404-2567,Hennepin
,,,Home and Community Based Services,Active,,Minneapolis,MN,55404-2416,Hennepin
,,,Home and Community Based Services,Active,,Minneapolis,MN,55404-3472,Hennepin
,,,Home and Community Based Services,Active,,Minneapolis,MN,55404-4218,Hennepin
,,,Home and Community Based Services,Active,,Minneapolis,MN,55404-7703,Hennepin
,,,Home and Community Based Services,Active,,Minneapolis,MN,55404-3881,Hennepin
,,,Home and Community Based Services,Active,,Minneapolis,MN,55404-2250,Hennepin
,,,Home and Community Based Services,Active,,Minneapolis,MN,55404-2974,Hennepin
,,,Home and Community Based Services,Active,,Minneapolis,MN,55404-3324,Hennepin
,,,Home and Community Based Services,Active,,Minneapolis,MN,55404-7502,Hennepin
,,,Substance Use Disorder Treatment,Active,,Minneapolis,MN,55404-2454,Hennepin
,,,Child Care Center,Active,,Minneapolis,MN,55404-2713,Hennepin
,,,Home and Community Based Services,Active,,Minneapolis,MN,55404-2552,Hennepin
,,,Intensive Residential Treatment Services and Residential Crisis Stabilization,Active,,Minneapolis,MN,55404-3378,Hennepin
,,,Home and Community Based Services,Active,,Minneapolis,MN,55404-6606,Hennepin
,,,Home and Community Based Services,Active,,Minneapolis,MN,55404-3488,Hennepin
,,,Home and Community Based Services,Active,,Minneapolis,MN,55404-4228,Hennepin
,,,Adult Day Care Services,Active,,Minneapolis,MN,55404-3713,Hennepin
,,,Home and Community Based Services,Active,,Minneapolis,MN,55404-3844,Hennepin
,,,Home and Community Based Services,Active,,Minneapolis,MN,55404-3939,Hennepin
,,,Child Care Center,Active,,Minneapolis,MN,55404-4435,Hennepin
,,,Home and Community Based Services,Active,,Minneapolis,MN,55404-5515,Hennepin
,,,Home and Community Based Services,Active,,Minneapolis,MN,55404-1411,Hennepin
,,,Adult Day Care Services,Active,,Minneapolis,MN,55404-4080,Hennepin
,,,Home and Community Based Services,Active,,Minneapolis,MN,55404-2202,Hennepin
,,,Home and Community Based Services,Active,,Minneapolis,MN,55404-3714,Hennepin
,,,Substance Use Disorder Treatment,Active,,Minneapolis,MN,55404-1507,Hennepin
,,,Home and Community Based Services,Active,,Minneapolis,MN,55404-1579,Hennepin
,,,Home and Community Based Services,Active,,Minneapolis,MN,55404-3879,Hennepin
,,,Substance Use Disorder Treatment,Active,,Minneapolis,MN,55404-2533,Hennepin
,,,Mental Health Clinic,Active,,Minneapolis,MN,55404-3382,Hennepin
,,,Home and Community Based Services - Community Residential Setting,Active,,Minneapolis,MN,55404-3758,Hennepin
,,,Home and Community Based Services,Active,,Minneapolis,MN,55404-3703,Hennepin
,,,Substance Use Disorder Treatment,Active,,Minneapolis,MN,55404-3107,Hennepin
,,,Home and Community Based Services,Active,,Minneapolis,MN,55404-2558,Hennepin
,,,Substance Use Disorder Treatment,Active,,Minneapolis,MN,55404-2212,Hennepin
,,,Child Care Center,Active,,Minneapolis,MN,55404-1812,Hennepin
,,,Withdrawal Management,Active,,Minneapolis,MN,55404-1449,Hennepin
,,,Home and Community Based Services,Active,,Minneapolis,MN,55404-3749,Hennepin
,,,Child Care Center,Active,,Minneapolis,MN,55404-1904,Hennepin
,,,Home and Community Based Services,Active,,Minneapolis,MN,55404-3824,Hennepin
,,,Home and Community Based Services,Active,,Minneapolis,MN,55404-3157,Hennepin
,,,Home and Community Based Services,Active,,Minneapolis,MN,55404-6610,Hennepin
,,,Home and Community Based Services,Active,,Minneapolis,MN,55404-3927,Hennepin
,,,Home and Community Based Services,Active,,Minneapolis,MN,55404-3672,Hennepin
,,,Home and Community Based Services,Active,,Minneapolis,MN,55405-2145,Hennepin
,,,Home and Community Based Services,Active,,Minneapolis,MN,55405-6100,Hennepin
,,,Home and Community Based Services,Active,,Minneapolis,MN,55405-2648,Hennepin
,,,Children's Residential Facilities,Active,,Minneapolis,MN,55405,Hennepin
,,,Home and Community Based Services,Active,,Minneapolis,MN,55405-2759,Hennepin
,,,Home and Community Based Services,Active,,Minneapolis,MN,55405-6000,Hennepin
,,,Child Care Center,Active,,Minneapolis,MN,55405-1227,Hennepin
,,,Home and Community Based Services,Active,,Minneapolis,MN,55405-2537,Hennepin
,,,Home and Community Based Services,Active,,Minneapolis,MN,55405-3564,Hennepin
,,,Child Care Center,Active,,Minneapolis,MN,55405-1502,Hennepin
,,,Certified Child Care Center,Active,,Minneapolis,MN,55405-1263,Hennepin
,,,Child Care Center,Active,,Minneapolis,MN,55405-1947,Hennepin
,,,Certified Child Care Center,Active,,Minneapolis,MN,55405-2455,Hennepin
,,,Child Care Center,Active,,Minneapolis,MN,55405-2605,Hennepin
,,,Home and Community Based Services,Active,,Minneapolis,MN,55405-1803,Hennepin
,,,Adult Day Care Services,Active,,Minneapolis,MN,55405-1177,Hennepin
,,,Certified Child Care Center,Active,,Minneapolis,MN,55405-2424,Hennepin
,,,Home and Community Based Services,Active,,Minneapolis,MN,55405-2602,Hennepin
,,,Child Care Center,Active,,Minneapolis,MN,55405-2009,Hennepin
,,,Child Care Center,Active,,Minneapolis,MN,55405-2693,Hennepin
,,,Substance Use Disorder Treatment,Active,,Minneapolis,MN,55405-1216,Hennepin
,,,Child Care Center,Active,,Minneapolis,MN,55406-4504,Hennepin
,,,Home and Community Based Services,Active,,Minneapolis,MN,55406-1963,Hennepin
,,,Home and Community Based Services,Active,,Minneapolis,MN,55406-1357,Hennepin
,,,Home and Community Based Services,Active,,Minneapolis,MN,55406-4600,Hennepin
,,,Child Care Center,Active,,Minneapolis,MN,55406,Hennepin
,,,Home and Community Based Services,Active,,Minneapolis,MN,55406-1185,Hennepin
,,,Home and Community Based Services,Active,,Minneapolis,MN,55406-4420,Hennepin
,,,Family Child Care,Active,,Minneapolis,MN,55406-4002,Hennepin
,,,Adult Day Care Services,Active,,Minneapolis,MN,55406-3503,Hennepin
,,,Home and Community Based Services,Active,,Minneapolis,MN,55406-4529,Hennepin
,,,Child Care Center,Active,,Minneapolis,MN,55406-2248,Hennepin
,,,Home and Community Based Services,Active,,Minneapolis,MN,55406-1168,Hennepin
,,,Home and Community Based Services,Active,,Minneapolis,MN,55406-2638,Hennepin
,,,Home and Community Based Services,Active,,Minneapolis,MN,55406-1716,Hennepin
,,,Child Care Center,Active,,Minneapolis,MN,55406-1923,Hennepin
,,,Child Care Center,Active,,Minneapolis,MN,55406-2150,Hennepin
,,,Home and Community Based Services,Active,,Minneapolis,MN,55406-2158,Hennepin
,,,Home and Community Based Services,Active,,Minneapolis,MN,55406-1084,Hennepin
,,,Mental Health Clinic,Active,,Minneapolis,MN,55406-1227,Hennepin
,,,Adult Foster Care,Active,,Minneapolis,MN,55406-2513,Hennepin
,,,Home and Community Based Services - Community Residential Setting,Active,,Minneapolis,MN,55406-0000,Hennepin
,,,Home and Community Based Services - Community Residential Setting,Active,,Minneapolis,MN,55406-2401,Hennepin
,,,Home and Community Based Services - Community Residential Setting,Active,,Minneapolis,MN,55406-4519,Hennepin
,,,Home and Community Based Services,Active,,Minneapolis,MN,55406-2151,Hennepin
,,,Home and Community Based Services,Active,,Minneapolis,MN,55406-1505,Hennepin
,,,Home and Community Based Services,Active,,Minneapolis,MN,55406-4614,Hennepin
,,,Home and Community Based Services,Active,,Minneapolis,MN,55406-2989,Hennepin
,,,Adult Day Care Services,Active,,Minneapolis,MN,55406-1245,Hennepin
,,,Child Foster Residence Setting,Active,,Minneapolis,MN,55406-2515,Hennepin
,,,Home and Community Based Services,Active,,Minneapolis,MN,55406-3482,Hennepin
,,,Home and Community Based Services,Active,,Minneapolis,MN,55406-1201,Hennepin
,,,Child Care Center,Pending Reopening as of 10/22/2025,,Minneapolis,MN,55406-2632,Hennepin
,,,Child Care Center,Active,,Minneapolis,MN,55406-2029,Hennepin
,,,Family Child Care,Active,,Minneapolis,MN,55406-2820,Hennepin
,,,Home and Community Based Services,Active,,Minneapolis,MN,55406-1574,Hennepin
,,,Family Child Care,Active,,Minneapolis,MN,55406-3745,Hennepin
,,,Child Care Center,Active,,Minneapolis,MN,55406-3860,Hennepin
,,,Family Child Care,Active,,Minneapolis,MN,55406-1917,Hennepin
,,,Home and Community Based Services,Active,,Minneapolis,MN,55406-2625,Hennepin
,,,Adult Day Care Services,Active,,Minneapolis,MN,55406-3119,Hennepin
,,,Home and Community Based Services,Active,,Minneapolis,MN,55406-2505,Hennepin
,,,Home and Community Based Services,Active,,Minneapolis,MN,55406-1500,Hennepin
,,,Home and Community Based Services,Active,,Minneapolis,MN,55406-1195,Hennepin
,,,Certified Child Care Center,Active,,Minneapolis,MN,55406-3612,Hennepin
,,,Certified Child Care Center,Active,,Minneapolis,MN,55406-3801,Hennepin
,,,Child Care Center,Active,,Minneapolis,MN,55406-3661,Hennepin
,,,Home and Community Based Services,Active,,Minneapolis,MN,55406-1235,Hennepin
,,,Home and Community Based Services - Community Residential Setting,Active,,Minneapolis,MN,55406-2343,Hennepin
,,,Child Care Center,Active,,Minneapolis,MN,55406-2441,Hennepin
,,,Child Care Center,Active,,Minneapolis,MN,55406-2255,Hennepin
,,,Home and Community Based Services,Active,,Minneapolis,MN,55406-1313,Hennepin
,,,Family Child Care,Active,,Minneapolis,MN,55406-3039,Hennepin
,,,Home and Community Based Services - Community Residential Setting,Active,,Minneapolis,MN,55406-2809,Hennepin
,,,Home and Community Based Services,Active,,Minneapolis,MN,55406-3777,Hennepin
,,,Home and Community Based Services,Active,,Minneapolis,MN,55406-2173,Hennepin
,,,Home and Community Based Services,Active,,Minneapolis,MN,55406-2148,Hennepin
,,,Home and Community Based Services,Active,,Minneapolis,MN,55406-2444,Hennepin
,,,Home and Community Based Services,Active,,Minneapolis,MN,55406-3462,Hennepin
,,,Certified Child Care Center,Active,,Minneapolis,MN,55406-3527,Hennepin
,,,Certified Child Care Center,Active,,Minneapolis,MN,55406-1335,Hennepin
,,,Home and Community Based Services,Active,,Minneapolis,MN,55406-1026,Hennepin
,,,Child Care Center,Active,,Minneapolis,MN,55406-1459,Hennepin
,,,Home and Community Based Services,Active,,Minneapolis,MN,55406-2161,Hennepin
,,,Child Care Center,Active,,Minneapolis,MN,55406-1415,Hennepin
,,,Child Care Center,Active,,Minneapolis,MN,55406-2041,Hennepin
,,,Family Child Care,Active,,Minneapolis,MN,55406-2456,Hennepin
,,,Home and Community Based Services,Active,,Minneapolis,MN,55406-4127,Hennepin
,,,Child Care Center,Pending Reopening as of 01/31/2025,,Minneapolis,MN,55406-3357,Hennepin
,,,Family Child Care,Active,,Minneapolis,MN,55406-4063,Hennepin
,,,Certified Child Care Center,Active,,Minneapolis,MN,55407-2930,Hennepin
,,,Home and Community Based Services,Active,,Minneapolis,MN,55407-1997,Hennepin
,,,Home and Community Based Services,Active,,Minneapolis,MN,55407-1009,Hennepin
,,,Home and Community Based Services,Active,,Minneapolis,MN,55407-4938,Hennepin
,,,Adult Day Care Services,Active,,Minneapolis,MN,55407-1620,Hennepin
,,,Adult Day Care Services,Active,,Minneapolis,MN,55407-3331,Hennepin
,,,Home and Community Based Services,Active,,Minneapolis,MN,55407-3435,Hennepin
,,,Child Care Center,Active,,Minneapolis,MN,55407,Hennepin
,,,Family Child Care,Active,,Minneapolis,MN,55407-2326,Hennepin
,,,Home and Community Based Services,Active,,Minneapolis,MN,55407-2031,Hennepin
,,,Home and Community Based Services,Active,,Minneapolis,MN,55407-3079,Hennepin
,,,Child Care Center,Active,,Minneapolis,MN,55407-2107,Hennepin
,,,Child Care Center,Closed as of 09/13/2025,,Minneapolis,MN,55407-2444,Hennepin
,,,Adult Day Care Services,Active,,Minneapolis,MN,55407-4409,Hennepin
,,,Home and Community Based Services,Active,,Minneapolis,MN,55407-1819,Hennepin
,,,Home and Community Based Services - Community Residential Setting,Active,,Minneapolis,MN,55407-2512,Hennepin
,,,Home and Community Based Services,Active,,Minneapolis,MN,55407-1742,Hennepin
,,,Home and Community Based Services,Active,,Minneapolis,MN,55407-2517,Hennepin
,,,Home and Community Based Services,Active,,Minneapolis,MN,55407-1777,Hennepin
,,,Home and Community Based Services,Active,,Minneapolis,MN,55407-1547,Hennepin
,,,Home and Community Based Services,Closed as of 10/29/2025,,Minneapolis,MN,55407-3202,Hennepin
,,,Child Care Center,Active,,Minneapolis,MN,55407-1805,Hennepin
,,,Home and Community Based Services,Active,,Minneapolis,MN,55407-1849,Hennepin
,,,Home and Community Based Services,Active,,Minneapolis,MN,55407-6600,Hennepin
,,,Home and Community Based Services,Active,,Minneapolis,MN,55407-4004,Hennepin
,,,Home and Community Based Services,Active,,Minneapolis,MN,55407-1417,Hennepin
,,,Child Care Center,Closed as of 10/01/2025,,Minneapolis,MN,55407-2520,Hennepin
,,,Home and Community Based Services,Active,,Minneapolis,MN,55407-1948,Hennepin
,,,Adult Day Care Services,Active,,Minneapolis,MN,55407-3579,Hennepin
,,,Adult Foster Care,Active,,Minneapolis,MN,55407-3554,Hennepin
,,,Home and Community Based Services,Active,,Minneapolis,MN,55407-1852,Hennepin
,,,Family Child Care,Active,,Minneapolis,MN,55407-3535,Hennepin
,,,Mental Health Clinic,Active,,Minneapolis,MN,55407-6700,Hennepin
,,,Family Child Care,Active,,Minneapolis,MN,55407-3240,Hennepin
,,,Child Care Center,Active,,Minneapolis,MN,55407-6702,Hennepin
,,,Child Care Center,Active,,Minneapolis,MN,55407-2603,Hennepin
,,,Child Care Center,Active,,Minneapolis,MN,55407-3706,Hennepin
,,,Family Child Care,Active,,Minneapolis,MN,55407-1505,Hennepin
,,,Mental Health Clinic,Active,,Minneapolis,MN,55407-4385,Hennepin
,,,Home and Community Based Services,Revoked as of 12/18/2024,,Minneapolis,MN,55407-3613,Hennepin
,,,Home and Community Based Services,Closed as of 09/10/2025,,Minneapolis,MN,55407-1884,Hennepin
,,,Family Child Care,Active,,Minneapolis,MN,55407-3127,Hennepin
,,,Home and Community Based Services,Active,,Minneapolis,MN,55407-6601,Hennepin
,,,Family Child Care,Active,,Minneapolis,MN,55407-1810,Hennepin
,,,Home and Community Based Services - Community Residential Setting,Active,,Minneapolis,MN,55407-1122,Hennepin
,,,Child Care Center,Active,,Minneapolis,MN,55407-3512,Hennepin
,,,Home and Community Based Services,Active,,Minneapolis,MN,55407-1006,Hennepin
,,,Child Care Center,Active,,Minneapolis,MN,55407-3623,Hennepin
,,,Family Child Care,Active,,Minneapolis,MN,55407-3459,Hennepin
,,,Family Child Care,Active,,Minneapolis,MN,55407-2823,Hennepin
,,,Adult Day Care Services,Active,,Minneapolis,MN,55407-1763,Hennepin
,,,Certified Child Care Center,Active,,Minneapolis,MN,55407-2727,Hennepin
,,,Child Care Center,Active,,Minneapolis,MN,55407-2964,Hennepin
,,,Home and Community Based Services - Day Services Facility,Active,,Minneapolis,MN,55407-2109,Hennepin
,,,Family Child Care,Active,,Minneapolis,MN,55407-2944,Hennepin
,,,Home and Community Based Services,Active,,Minneapolis,MN,55407-1720,Hennepin
,,,Home and Community Based Services - Community Residential Setting,Active,,Minneapolis,MN,55407-0000,Hennepin
,,,Home and Community Based Services - Community Residential Setting,Active,,Minneapolis,MN,55407-5322,Hennepin
,,,Adult Day Care Services,Revoked as of 03/11/2025,,Minneapolis,MN,55407-1549,Hennepin
,,,Substance Use Disorder Treatment,Active,,Minneapolis,MN,55407-1809,Hennepin
,,,Family Child Care,Active,,Minneapolis,MN,55407-3548,Hennepin
,,,Child Care Center,Active,,Minneapolis,MN,55407-1008,Hennepin
,,,Child Care Center,Pending Reopening as of 02/02/2025,,Minneapolis,MN,55407-2704,Hennepin
,,,Home and Community Based Services - Community Residential Setting,Active,,Minneapolis,MN,55407-2926,Hennepin
,,,Home and Community Based Services,Active,,Minneapolis,MN,55407-1621,Hennepin
,,,Family Child Care,Active,,Minneapolis,MN,55407-1310,Hennepin
,,,Family Child Care,Active,,Minneapolis,MN,55407-2801,Hennepin
,,,Home and Community Based Services,Active,,Minneapolis,MN,55407-4323,Hennepin
,,,Family Child Care,Active,,Minneapolis,MN,55407-2033,Hennepin
,,,Substance Use Disorder Treatment,Active,,Minneapolis,MN,55407-1116,Hennepin
,,,Home and Community Based Services,Active,,Minneapolis,MN,55407-1013,Hennepin
,,,Child Care Center,Active,,Minneapolis,MN,55407-1901,Hennepin
,,,Home and Community Based Services - Community Residential Setting,Active,,Minneapolis,MN,55407-2844,Hennepin
,,,Home and Community Based Services,Active,,Minneapolis,MN,55407-4022,Hennepin
,,,Child Care Center,Active,,Minneapolis,MN,55407-1301,Hennepin
,,,Home and Community Based Services,Active,,Minneapolis,MN,55407-1161,Hennepin
,,,Adult Day Care Services,Active,,Minneapolis,MN,55407-1776,Hennepin
,,,Home and Community Based Services,Active,,Minneapolis,MN,55407-2007,Hennepin
,,,Family Child Care,Active,,Minneapolis,MN,55407-3410,Hennepin
,,,Child Care Center,Active,,Minneapolis,MN,55407-1900,Hennepin
,,,Child Caring-Placing Agency,Active,,Minneapolis,MN,55408,Hennepin
,,,Home and Community Based Services,Active,,Minneapolis,MN,55408-3025,Hennepin
,,,Home and Community Based Services,Active,,Minneapolis,MN,55408-3368,Hennepin
,,,Home and Community Based Services,Active,,Minneapolis,MN,55408-4552,Hennepin
,,,Home and Community Based Services - Community Residential Setting,Active,,Minneapolis,MN,55408-4548,Hennepin
,,,Home and Community Based Services - Community Residential Setting,Active,,Minneapolis,MN,55408-2907,Hennepin
,,,Home and Community Based Services,Active,,Minneapolis,MN,55408-2474,Hennepin
,,,Home and Community Based Services,Active,,Minneapolis,MN,55408-5202,Hennepin
,,,Home and Community Based Services,Active,,Minneapolis,MN,55408-4670,Hennepin
,,,Home and Community Based Services,Active,,Minneapolis,MN,55408-4789,Hennepin
,,,Home and Community Based Services,Active,,Minneapolis,MN,55408-3151,Hennepin
,,,Home and Community Based Services,Active,,Minneapolis,MN,55408-1602,Hennepin
,,,Home and Community Based Services,Active,,Minneapolis,MN,55408-1623,Hennepin
,,,Certified Child Care Center,Pending Reopening as of 10/02/2025,,Minneapolis,MN,55408-4429,Hennepin
,,,Home and Community Based Services,Active,,Minneapolis,MN,55408-1628,Hennepin
,,,Home and Community Based Services,Active,,Minneapolis,MN,55408-4820,Hennepin
,,,Home and Community Based Services,Active,,Minneapolis,MN,55408-5203,Hennepin
,,,Home and Community Based Services,Active,,Minneapolis,MN,55408-2409,Hennepin
,,,Home and Community Based Services,Active,,Minneapolis,MN,55408-3470,Hennepin
,,,Home and Community Based Services,Active,,Minneapolis,MN,55408-2802,Hennepin
,,,Family Child Care,Active,,Minneapolis,MN,55408-4529,Hennepin
,,,Home and Community Based Services,Active,,Minneapolis,MN,55408-2995,Hennepin
,,,Home and Community Based Services,Active,,Minneapolis,MN,55408-2160,Hennepin
,,,Home and Community Based Services,Active,,Minneapolis,MN,55408-3630,Hennepin
,,,Home and Community Based Services - Community Residential Setting,Active,,Minneapolis,MN,55408-0000,Hennepin
,,,Home and Community Based Services,Active,,Minneapolis,MN,55408-1601,Hennepin
,,,Substance Use Disorder Treatment,Active,,Minneapolis,MN,55408-2554,Hennepin
,,,Home and Community Based Services,Active,,Minneapolis,MN,55408-2954,Hennepin
,,,Adult Day Care Services,Active,,Minneapolis,MN,55408-4898,Hennepin
,,,Home and Community Based Services,Active,,Minneapolis,MN,55408-2465,Hennepin
,,,Home and Community Based Services,Active,,Minneapolis,MN,55408-2934,Hennepin
,,,Home and Community Based Services,Active,,Minneapolis,MN,55408-2475,Hennepin
,,,Home and Community Based Services,Active,,Minneapolis,MN,55408-3407,Hennepin
,,,Home and Community Based Services,Active,,Minneapolis,MN,55408-1907,Hennepin
,,,Child Care Center,Active,,Minneapolis,MN,55408-3154,Hennepin
,,,Home and Community Based Services,Active,,Minneapolis,MN,55408-2885,Hennepin
,,,Home and Community Based Services,Active,,Minneapolis,MN,55408-1457,Hennepin
,,,Family Child Care,Active,,Minneapolis,MN,55408-1104,Hennepin
,,,Home and Community Based Services - Community Residential Setting,Active,,Minneapolis,MN,55408-3825,Hennepin
,,,Certified Child Care Center,Active,,Minneapolis,MN,55408-4526,Hennepin
,,,Certified Child Care Center,Active,,Minneapolis,MN,55408-4348,Hennepin
,,,Substance Use Disorder Treatment,Active,,Minneapolis,MN,55408-3136,Hennepin
,,,Home and Community Based Services,Active,,Minneapolis,MN,55408-3115,Hennepin
,,,Home and Community Based Services,Active,,Minneapolis,MN,55408-2162,Hennepin
,,,Child Care Center,Active,,Minneapolis,MN,55408-3119,Hennepin
,,,Home and Community Based Services,Active,,Minneapolis,MN,55408-3026,Hennepin
,,,Home and Community Based Services,Active,,Minneapolis,MN,55408-1080,Hennepin
,,,Home and Community Based Services - Community Residential Setting,Active,,Minneapolis,MN,55408-3817,Hennepin
,,,Child Caring-Placing Agency,Active,,Minneapolis,MN,55408-4785,Hennepin
,,,Family Child Care,Active,,Minneapolis,MN,55408-2922,Hennepin
,,,Home and Community Based Services,Active,,Minneapolis,MN,55408-1309,Hennepin
,,,Home and Community Based Services,Active,,Minneapolis,MN,55408-2460,Hennepin
,,,Adult Day Care Services,Active,,Minneapolis,MN,55408-4831,Hennepin
,,,Family Child Care,Active,,Minneapolis,MN,55408-3019,Hennepin
,,,Home and Community Based Services,Active,,Minneapolis,MN,55408-2502,Hennepin
,,,Child Care Center,Active,,Minneapolis,MN,55408-2329,Hennepin
,,,Home and Community Based Services,Active,,Minneapolis,MN,55408-2297,Hennepin
,,,Family Child Care,Active,,Minneapolis,MN,55409-1309,Hennepin
,,,Home and Community Based Services,Active,,Minneapolis,MN,55409-1490,Hennepin
,,,Family Child Care,Active,,Minneapolis,MN,55409-1347,Hennepin
,,,Child Care Center,Active,,Minneapolis,MN,55409,Hennepin
,,,Home and Community Based Services - Community Residential Setting,Active,,Minneapolis,MN,55409-0000,Hennepin
,,,Home and Community Based Services - Community Residential Setting,Active,,Minneapolis,MN,55409-1917,Hennepin
,,,Child Care Center,Active,,Minneapolis,MN,55409-1661,Hennepin
,,,Child Care Center,Active,,Minneapolis,MN,55409-1284,Hennepin
,,,Child Care Center,Active,,Minneapolis,MN,55409-1442,Hennepin
,,,Home and Community Based Services,Active,,Minneapolis,MN,55409-1300,Hennepin
,,,Child Care Center,Active,,Minneapolis,MN,55409-1226,Hennepin
,,,Child Care Center,Active,,Minneapolis,MN,55409-2105,Hennepin
,,,Family Child Care,Active,,Minneapolis,MN,55409-1233,Hennepin
,,,Certified Child Care Center,Active,,Minneapolis,MN,55409-1710,Hennepin
,,,Home and Community Based Services - Community Residential Setting,Active,,Minneapolis,MN,55409-1601,Hennepin
,,,Family Child Care,Conditional as of 06/16/2025,,Minneapolis,MN,55409-1321,Hennepin
,,,Family Child Care,Active,,Minneapolis,MN,55409-1639,Hennepin
,,,Family Child Care,Active,,Minneapolis,MN,55409-1350,Hennepin
,,,Residential Facilities for Adults with Mental Illness,Active,,Minneapolis,MN,55410-1553,Hennepin
,,,Child Care Center,Active,,Minneapolis,MN,55410,Hennepin
,,,Family Child Care,Active,,Minneapolis,MN,55410-2824,Hennepin
,,,Child Care Center,Active,,Minneapolis,MN,55410-1551,Hennepin
,,,Family Child Care,Active,,Minneapolis,MN,55410-1729,Hennepin
,,,Home and Community Based Services - Community Residential Setting,Active,,Edina,MN,55410-2637,Hennepin
,,,Home and Community Based Services - Day Services Facility,Active,,Minneapolis,MN,55410-0000,Hennepin
,,,Home and Community Based Services,Active,,Minneapolis,MN,55410-1332,Hennepin
,,,Child Care Center,Active,,Minneapolis,MN,55410-1748,Hennepin
,,,Family Child Care,Active,,Minneapolis,MN,55410-2426,Hennepin
,,,Family Child Care,Active,,Minneapolis,MN,55410-1501,Hennepin
,,,Child Care Center,Active,,Minneapolis,MN,55410-1325,Hennepin
,,,Family Child Care,Active,,Edina,MN,55410,Hennepin
,,,Child Care Center,Active,,Minneapolis,MN,55410-1713,Hennepin
,,,Child Care Center,Active,,Minneapolis,MN,55410-1618,Hennepin
,,,Family Child Care,Active,,Edina,MN,55410-2813,Hennepin
,,,Certified Child Care Center,Active,,Minneapolis,MN,55410-2553,Hennepin
,,,Certified Child Care Center,Active,,Minneapolis,MN,55410-1055,Hennepin
,,,Certified Child Care Center,Active,,Minneapolis,MN,55410-2613,Hennepin
,,,Home and Community Based Services - Community Residential Setting,Active,,Edina,MN,55410-0000,Hennepin
,,,Child Care Center,Active,,Minneapolis,MN,55410-2224,Hennepin
,,,Child Care Center,Active,,Edina,MN,55410-2357,Hennepin
,,,Child Care Center,Active,,Edina,MN,55410-2020,Hennepin
,,,Family Child Care,Active,,Edina,MN,55410-2725,Hennepin
,,,Child Care Center,Active,,Minneapolis,MN,55411-3713,Hennepin
,,,Home and Community Based Services,Active,,Minneapolis,MN,55411-2503,Hennepin
,,,Child Care Center,Active,,Minneapolis,MN,55411-2050,Hennepin
,,,Child Care Center,Active,,Minneapolis,MN,55411-1366,Hennepin
,,,Child Care Center,Active,,Minneapolis,MN,55411-3219,Hennepin
,,,Home and Community Based Services,Active,,Minneapolis,MN,55411-2169,Hennepin
,,,Family Child Care,Active,,Minneapolis,MN,55411-3952,Hennepin
,,,Family Child Care,Active,,Minneapolis,MN,55411-3009,Hennepin
,,,Substance Use Disorder Treatment,Closed as of 12/11/2025,,Minneapolis,MN,55411-2473,Hennepin
,,,Family Child Care,Active,,Minneapolis,MN,55411-1119,Hennepin
,,,Child Care Center,Active,,Minneapolis,MN,55411,Hennepin
,,,Home and Community Based Services,Active,,Minneapolis,MN,55411-2712,Hennepin
,,,Substance Use Disorder Treatment,Active,,Minneapolis,MN,55411-2504,Hennepin
,,,Family Child Care,Active,,Minneapolis,MN,55411-4013,Hennepin
,,,Family Child Care,Closed as of 09/26/2025,,Minneapolis,MN,55411-1912,Hennepin
,,,Home and Community Based Services,Active,,Minneapolis,MN,55411-2845,Hennepin
,,,Home and Community Based Services,Active,,Minneapolis,MN,55411-2532,Hennepin
,,,Child Care Center,Closed as of 10/13/2025,,Minneapolis,MN,55411-1737,Hennepin
,,,Child Care Center,Active,,Minneapolis,MN,55411-3931,Hennepin
,,,Home and Community Based Services,Active,,Minneapolis,MN,55411-3972,Hennepin
,,,Adult Foster Care,Active,,Minneapolis,MN,55411-2952,Hennepin
,,,Home and Community Based Services,Active,,Minneapolis,MN,55411-2173,Hennepin
,,,Home and Community Based Services - Community Residential Setting,Active,,Minneapolis,MN,55411-2157,Hennepin
,,,Certified Child Care Center,Active,,Minneapolis,MN,55411-2450,Hennepin
,,,Home and Community Based Services,Active,,Minneapolis,MN,55411-2246,Hennepin
,,,Home and Community Based Services,Active,,Minneapolis,MN,55411-3625,Hennepin
,,,Family Child Care,Active,,Minneapolis,MN,55411-1927,Hennepin
,,,Family Child Care,Active,,Minneapolis,MN,55411-3621,Hennepin
,,,Children's Residential Facilities,Active,,Minneapolis,MN,55411-2720,Hennepin
,,,Child Care Center,Active,,Minneapolis,MN,55411-3835,Hennepin
,,,Child Care Center,Active,,Minneapolis,MN,55411-3735,Hennepin
,,,Adult Day Care Services,Active,,Minneapolis,MN,55411-1004,Hennepin
,,,Family Child Care,Active,,Minneapolis,MN,55411-1524,Hennepin
,,,Home and Community Based Services,Active,,Minneapolis,MN,55411-2247,Hennepin
,,,Child Care Center,Active,,Minneapolis,MN,55411-4406,Hennepin
,,,Family Child Care,Revocation Order Issued/Under Appeal/May Operate as of 06/05/2025,,Minneapolis,MN,55411-3016,Hennepin
,,,Children's Residential Facilities,Active,,Minneapolis,MN,55411-3933,Hennepin
,,,Home and Community Based Services,Active,,Minneapolis,MN,55411-3033,Hennepin
,,,Substance Use Disorder Treatment,Revoked as of 06/28/2022,,Minneapolis,MN,55411-2116,Hennepin
,,,Mental Health Clinic,Active,,Minneapolis,MN,55411-3600,Hennepin
,,,Child Care Center,Active,,Minneapolis,MN,55411-4005,Hennepin
,,,Substance Use Disorder Treatment,Active,,Minneapolis,MN,55411-1392,Hennepin
,,,Home and Community Based Services - Day Services Facility,Active,,Minneapolis,MN,55411-2259,Hennepin
,,,Family Child Care,Active,,Minneapolis,MN,55411-3549,Hennepin
,,,Family Child Care,Active,,Minneapolis,MN,55411-3504,Hennepin
,,,Substance Use Disorder Treatment,Active,,Minneapolis,MN,55411-3636,Hennepin
,,,Family Child Care,Active,,Minneapolis,MN,55411-3704,Hennepin
,,,Home and Community Based Services,Active,,Minneapolis,MN,55411-3326,Hennepin
,,,Child Care Center,Active,,Minneapolis,MN,55411-3925,Hennepin
,,,Child Care Center,Active,,Minneapolis,MN,55411-1010,Hennepin
,,,Child Care Center,Active,,Minneapolis,MN,55411-3968,Hennepin
,,,Home and Community Based Services,Active,,Minneapolis,MN,55411-4174,Hennepin
,,,Family Child Care,Active,,Minneapolis,MN,55411-3728,Hennepin
,,,Home and Community Based Services,Active,,Minneapolis,MN,55411-2214,Hennepin
,,,Family Child Care,Active,,Minneapolis,MN,55411-1015,Hennepin
,,,Family Child Care,Active,,Minneapolis,MN,55411-2316,Hennepin
,,,Substance Use Disorder Treatment,Active,,Minneapolis,MN,55411-3139,Hennepin
,,,Substance Use Disorder Treatment,Active,,Minneapolis,MN,55411-1606,Hennepin
,,,Family Child Care,Active,,Minneapolis,MN,55411-2018,Hennepin
,,,Adult Day Care Services,Closed as of 08/26/2025,,Minneapolis,MN,55412-2005,Hennepin
,,,Family Child Care,Active,,Minneapolis,MN,55412-1327,Hennepin
,,,Home and Community Based Services - Community Residential Setting,Active,,Minneapolis,MN,55412-1556,Hennepin
,,,Family Child Care,Active,,Minneapolis,MN,55412-1520,Hennepin
,,,Home and Community Based Services,Active,,Minneapolis,MN,55412-0000,Ramsey
,,,Family Child Care,Active,,Minneapolis,MN,55412-1526,Hennepin
,,,Family Child Care,Active,,Minneapolis,MN,55412-1929,Hennepin
,,,Child Care Center,Active,,Minneapolis,MN,55412-2615,Hennepin
,,,Family Child Care,Active,,Minneapolis,MN,55412-1724,Hennepin
,,,Home and Community Based Services,Active,,Minneapolis,MN,55412-2424,Hennepin
,,,Home and Community Based Services,Active,,Minneapolis,MN,55412-1559,Hennepin
,,,Family Child Care,Active,,Minneapolis,MN,55412-2324,Hennepin
,,,Child Care Center,Active,,Minneapolis,MN,55412-1515,Hennepin
,,,Family Child Care,Active,,Minneapolis,MN,55412-2166,Hennepin
,,,Family Child Care,Active,,Minneapolis,MN,55412-2317,Hennepin
,,,Adult Foster Care,Active,,Minneapolis,MN,55412-1812,Hennepin
,,,Family Child Care,Revoked as of 08/16/2023,,Minneapolis,MN,55412-1421,Hennepin
,,,Certified Child Care Center,Active,,Minneapolis,MN,55412,Hennepin
,,,Home and Community Based Services - Community Residential Setting,Active,,Minneapolis,MN,55412-2126,Hennepin
,,,Child Care Center,Active,,Minneapolis,MN,55412-1747,Hennepin
,,,Home and Community Based Services,Active,,Minneapolis,MN,55412-2406,Hennepin
,,,Child Care Center,Active,,Minneapolis,MN,55412-2342,Hennepin
,,,Family Child Care,Closed as of 08/31/2025,,Minneapolis,MN,55412-1616,Hennepin
,,,Home and Community Based Services - Community Residential Setting,Active,,Minneapolis,MN,55412-1917,Hennepin
,,,Adult Foster Care,Active,,Minneapolis,MN,55412-1947,Hennepin
,,,Family Child Care,Active,,Minneapolis,MN,55412-1956,Hennepin
,,,Certified Child Care Center,Active,,Minneapolis,MN,55412-1363,Hennepin
,,,Family Child Care,Active,,Minneapolis,MN,55412-1960,Hennepin
,,,Child Care Center,Active,,Minneapolis,MN,55412-1435,Hennepin
,,,Family Child Care,Active,,Minneapolis,MN,55412-2443,Hennepin
,,,Home and Community Based Services,Active,,Minneapolis,MN,55412-1700,Hennepin
,,,Child Care Center,Revoked as of 09/21/2023,,Minneapolis,MN,55412-2325,Hennepin
,,,Home and Community Based Services,Active,,Minneapolis,MN,55413-2700,Hennepin
,,,Substance Use Disorder Treatment,Closed as of 11/25/2025,,Minneapolis,MN,55413-1517,Hennepin
,,,Home and Community Based Services,Active,,Minneapolis,MN,55413-2760,Hennepin
,,,Home and Community Based Services,Active,,Minneapolis,MN,55413-2940,Hennepin
,,,Home and Community Based Services,Active,,Minneapolis,MN,55413-2717,Hennepin
,,,Family Child Care,Active,,Minneapolis,MN,55413-1233,Hennepin
,,,Child Care Center,Active,,Minneapolis,MN,55413,Hennepin
,,,Home and Community Based Services,Active,,Minneapolis,MN,55413-1084,Hennepin
,,,Home and Community Based Services,Active,,Minneapolis,MN,55413-2731,Hennepin
,,,Home and Community Based Services,Active,,Minneapolis,MN,55413-1002,Hennepin
,,,Home and Community Based Services,Active,,Minneapolis,MN,55413-2404,Hennepin
,,,Child Care Center,Active,,Minneapolis,MN,55413-2602,Hennepin
,,,Substance Use Disorder Treatment,Revoked as of 06/22/2022,,Minneapolis,MN,55413-1772,Hennepin
,,,Child Care Center,Active,,Minneapolis,MN,55413-1459,Hennepin
,,,Mental Health Clinic,Active,,Minneapolis,MN,55413-1763,Hennepin
,,,Home and Community Based Services,Active,,Minneapolis,MN,55413-1005,Hennepin
,,,Child Care Center,Active,,Minneapolis,MN,55413-1511,Hennepin
,,,Child Care Center,Active,,Minneapolis,MN,55413-1117,Hennepin
,,,Home and Community Based Services,Active,,Minneapolis,MN,55413-2627,Hennepin
,,,Home and Community Based Services,Active,,Minneapolis,MN,55413-2507,Hennepin
,,,Home and Community Based Services,Active,,Minneapolis,MN,55413-1637,Hennepin
,,,Home and Community Based Services,Active,,Minneapolis,MN,55413-1144,Hennepin
,,,Home and Community Based Services,Active,,Minneapolis,MN,55413-4403,Hennepin
,,,Home and Community Based Services,Active,,Minneapolis,MN,55413-2814,Hennepin
,,,Home and Community Based Services - Community Residential Setting,Active,,Minneapolis,MN,55413-2145,Hennepin
,,,Certified Child Care Center,Active,,Minneapolis,MN,55413-2117,Hennepin
,,,Home and Community Based Services,Active,,Minneapolis,MN,55413-1896,Hennepin
,,,Home and Community Based Services,Active,,Minneapolis,MN,55413-2724,Hennepin
,,,Home and Community Based Services,Active,,Minneapolis,MN,55413-1867,Hennepin
,,,Child Care Center,Active,,Minneapolis,MN,55413-1265,Hennepin
,,,Certified Child Care Center,Active,,Minneapolis,MN,55413-1666,Hennepin
,,,Home and Community Based Services,Active,,Minneapolis,MN,55413-2422,Hennepin
,,,Adult Foster Care,Active,,Minneapolis,MN,55413-1227,Hennepin
,,,Home and Community Based Services - Community Residential Setting,Active,,Minneapolis,MN,55413-2030,Hennepin
,,,Home and Community Based Services - Community Residential Setting,Active,,Minneapolis,MN,55413-2530,Hennepin
,,,Home and Community Based Services,Active,,Minneapolis,MN,55413-1946,Hennepin
,,,Child Care Center,Active,,Minneapolis,MN,55413-1238,Hennepin
,,,Home and Community Based Services,Active,,Minneapolis,MN,55413-1902,Hennepin
,,,Family Child Care,Active,,Minneapolis,MN,55413-1022,Hennepin
,,,Substance Use Disorder Treatment,Active,,Minneapolis,MN,55413-2759,Hennepin
,,,Intensive Residential Treatment Services and Residential Crisis Stabilization,Active,,Minneapolis,MN,55414-2549,Hennepin
,,,Substance Use Disorder Treatment,Active,,Minneapolis,MN,55414-3325,Hennepin
,,,Home and Community Based Services,Active,,Minneapolis,MN,55414-3316,Hennepin
,,,Home and Community Based Services,Active,,Minneapolis,MN,55414-2352,Hennepin
,,,Child Care Center,Active,,Minneapolis,MN,55414-1314,Hennepin
,,,Home and Community Based Services,Active,,Minneapolis,MN,55414-3260,Hennepin
,,,Home and Community Based Services,Active,,Minneapolis,MN,55414-1060,Hennepin
,,,Home and Community Based Services,Denied as of 04/30/2025,,Minneapolis,MN,55414-2600,Hennepin
,,,Child Care Center,Active,,Minneapolis,MN,55414-2702,Hennepin
,,,Home and Community Based Services,Active,,Minneapolis,MN,55414-3590,Hennepin
,,,Home and Community Based Services - Community Residential Setting,Active,,Minneapolis,MN,55414-3635,Hennepin
,,,Home and Community Based Services,Active,,Minneapolis,MN,55414-7501,Hennepin
,,,Child Caring-Placing Agency,Active,,Minneapolis,MN,55414-1312,Hennepin
,,,Mental Health Clinic,Active,,Minneapolis,MN,55414,Hennepin
,,,Child Care Center,Active,,Minneapolis,MN,55414-3459,Hennepin
,,,Home and Community Based Services,Active,,Minneapolis,MN,55414-1096,Hennepin
,,,Child Care Center,Active,,Minneapolis,MN,55414-3114,Hennepin
,,,Home and Community Based Services - Day Services Facility,Active,,Minneapolis,MN,55414-0000,Hennepin
,,,Home and Community Based Services,Active,,Minneapolis,MN,55414-2105,Hennepin
,,,Home and Community Based Services,Active,,Minneapolis,MN,55414-2226,Hennepin
,,,Home and Community Based Services,Active,,Minneapolis,MN,55414-3207,Hennepin
,,,Child Care Center,Active,,Minneapolis,MN,55414-2413,Hennepin
,,,Substance Use Disorder Treatment,Active,,Minneapolis,MN,55415-1702,Hennepin
,,,Children's Residential Facilities,Active,,Minneapolis,MN,55415,Hennepin
,,,Child Care Center,Active,,Minneapolis,MN,55415-7541,Hennepin
,,,Child Care Center,Active,,Minneapolis,MN,55415-1104,Hennepin
,,,Home and Community Based Services,Active,,Minneapolis,MN,55415-1419,Hennepin
,,,Adult Day Care Services,Active,,St Louis Park,MN,55416,Hennepin
,,,Home and Community Based Services,Active,,St Louis Park,MN,55416-1957,Hennepin
,,,Mental Health Clinic,Active,,Minneapolis,MN,55416,Hennepin
,,,Child Care Center,Active,,Edina,MN,55416,Hennepin
,,,Home and Community Based Services,Active,,St Louis Park,MN,55416-1487,Hennepin
,,,Child Care Center,Active,,Golden Valley,MN,55416-1210,Hennepin
,,,Family Child Care,Active,,SAINT LOUIS PARK,MN,55416-1732,Hennepin
,,,Child Care Center,Active,,Golden Valley,MN,55416-1225,Hennepin
,,,Home and Community Based Services,Active,,Minneapolis,MN,55416-4124,Hennepin
,,,Home and Community Based Services - Community Residential Setting,Active,,St Louis Park,MN,55416-1728,Hennepin
,,,Child Care Center,Active,,Edina,MN,55416-5029,Hennepin
,,,Child Care Center,Active,,Saint Louis Park,MN,55416,Hennepin
,,,Child Care Center,Active,,Saint Louis Park,MN,55416-3700,Hennepin
,,,Home and Community Based Services,Active,,St Louis Park,MN,55416-5369,Hennepin
,,,Child Care Center,Active,,Saint Louis Park,MN,55416-2019,Hennepin
,,,Home and Community Based Services - Community Residential Setting,Active,,St Louis Park,MN,55416-3141,Hennepin
,,,Home and Community Based Services,Active,,St Louis Park,MN,55416-2906,Hennepin
,,,Home and Community Based Services,Active,,St Louis Park,MN,55416-3047,Hennepin
,,,Family Child Care,Active,,St Louis Park,MN,55416-3101,Hennepin
,,,Certified Child Care Center,Active,,Saint Louis Park,MN,55416-2380,Hennepin
,,,Certified Child Care Center,Active,,Saint Louis Park,MN,55416-3245,Hennepin
,,,Child Care Center,Active,,Saint Louis Park,MN,55416-3008,Hennepin
,,,Child Care Center,Active,,Saint Louis Park,MN,55416-1420,Hennepin
,,,Child Foster Residence Setting,Active,,Golden Valley,MN,55416-1312,Hennepin
,,,Child Care Center,Active,,Golden Valley,MN,55416,Hennepin
,,,Child Care Center,Active,,Saint Louis Park,MN,55416-1731,Hennepin
,,,Substance Use Disorder Treatment,Active,,St Louis Park,MN,55416-2734,Hennepin
,,,Home and Community Based Services,Active,,St Louis Park,MN,55416-1222,Hennepin
,,,Home and Community Based Services - Day Services Facility,Active,,St Louis Park,MN,55416-0000,Hennepin
,,,Home and Community Based Services,Active,,St Louis Park,MN,55416-1481,Hennepin
,,,Home and Community Based Services,Active,,St Louis Park,MN,55416-1488,Hennepin
,,,Family Child Care,Active,,St Louis Park,MN,55416-3023,Hennepin
,,,Child Care Center,Active,,Saint Louis Park,MN,55416-5445,Hennepin
,,,Home and Community Based Services - Community Residential Setting,Active,,St Louis Park,MN,55416-2114,Hennepin
,,,Home and Community Based Services - Community Residential Setting,Active,,St Louis Park,MN,55416-4032,Hennepin
,,,Child Care Center,Active,,Saint Louis Park,MN,55416-1218,Hennepin
,,,Child Care Center,Active,,Minneapolis,MN,55416-4104,Hennepin
,,,Child Care Center,Active,,Saint Louis Park,MN,55416-5384,Hennepin
,,,Home and Community Based Services,Active,,St Louis Park,MN,55416-1233,Hennepin
,,,Family Child Care,Active,,St Louis Park,MN,55416-1926,Hennepin
,,,Home and Community Based Services,Active,,Minneapolis,MN,55416-1487,Hennepin
,,,Family Child Care,Active,,Minneapolis,MN,55417-2307,Hennepin
,,,Family Child Care,Active,,Minneapolis,MN,55417,Hennepin
,,,Home and Community Based Services - Community Residential Setting,Active,,Minneapolis,MN,55417-2016,Hennepin
,,,Family Child Care,Active,,Minneapolis,MN,55417-3024,Hennepin
,,,Home and Community Based Services,Active,,Minneapolis,MN,55417-2383,Hennepin
,,,Family Child Care,Active,,Minneapolis,MN,55417-3106,Hennepin
,,,Family Child Care,Active,,Minneapolis,MN,55417-3224,Hennepin
,,,Family Child Care,Active,,Minneapolis,MN,55417-1925,Hennepin
,,,Family Child Care,Active,,Minneapolis,MN,55417-1625,Hennepin
,,,Family Child Care,Active,,Minneapolis,MN,55417-2255,Hennepin
,,,Home and Community Based Services - Community Residential Setting,Active,,Minneapolis,MN,55417-1158,Hennepin
,,,Family Child Care,Active,,Minneapolis,MN,55417-1157,Hennepin
,,,Child Care Center,Active,,Minneapolis,MN,55417-2206,Hennepin
,,,Child Care Center,Active,,Minneapolis,MN,55417-1734,Hennepin
,,,Home and Community Based Services - Community Residential Setting,Active,,Minneapolis,MN,55417-3148,Hennepin
,,,Child Care Center,Active,,Minneapolis,MN,55417-1536,Hennepin
,,,Home and Community Based Services - Community Residential Setting,Active,,Minneapolis,MN,55417-0000,Hennepin
,,,Certified Child Care Center,Active,,Minneapolis,MN,55417-2644,Hennepin
,,,Certified Child Care Center,Active,,Minneapolis,MN,55417-2003,Hennepin
,,,Child Care Center,Conditional as of 01/18/2025,,Minneapolis,MN,55417-2647,Hennepin
,,,Adult Day Care Services,Active,,Minneapolis,MN,55417-1647,Hennepin
,,,Family Child Care,Active,,Minneapolis,MN,55417-1437,Hennepin
,,,Child Care Center,Active,,Minneapolis,MN,55417-2505,Hennepin
,,,Certified Child Care Center,Active,,Minneapolis,MN,55417-2072,Hennepin
,,,Certified Child Care Center,Active,,Minneapolis,MN,55417-1342,Hennepin
,,,Home and Community Based Services - Community Residential Setting,Active,,Minneapolis,MN,55417-3129,Hennepin
,,,Family Child Care,Active,,Minneapolis,MN,55417-2642,Hennepin
,,,Family Child Care,Closed as of 07/03/2025,,Minneapolis,MN,55417-3231,Hennepin
,,,Child Care Center,Active,,Minneapolis,MN,55417-2444,Hennepin
,,,Home and Community Based Services - Community Residential Setting,Active,,Minneapolis,MN,55417-2707,Hennepin
,,,Home and Community Based Services,Revoked as of 05/03/2024,,Minneapolis,MN,55417-2429,Hennepin
,,,Child Foster Residence Setting,Revoked as of 05/03/2024,,Minneapolis,MN,55417-1326,Hennepin
,,,Home and Community Based Services,Active,,Minneapolis,MN,55418-4306,Hennepin
,,,Substance Use Disorder Treatment,Pending Reopening as of 08/30/2025,,ST ANTHONY,MN,55418-2491,Hennepin
,,,Home and Community Based Services - Community Residential Setting,Active,,Saint Anthony,MN,55418-0000,Hennepin
,,,Home and Community Based Services - Community Residential Setting,Active,,Minneapolis,MN,55418-0000,Hennepin
,,,Home and Community Based Services,Active,,ST ANTHONY,MN,55418-2881,Hennepin
,,,Home and Community Based Services,Active,,Minneapolis,MN,55418-3726,Hennepin
,,,Home and Community Based Services,Active,,Minneapolis,MN,55418-4879,Hennepin
,,,Adult Day Care Services,Active,,Minneapolis,MN,55418,Hennepin
,,,Home and Community Based Services,Active,,Minneapolis,MN,55418-4226,Hennepin
,,,Home and Community Based Services,Active,,ST ANTHONY,MN,55418-2637,Hennepin
,,,Home and Community Based Services,Active,,Minneapolis,MN,55418-4824,Hennepin
,,,Home and Community Based Services,Active,,Saint Anthony,MN,55418-2432,Hennepin
,,,Home and Community Based Services,Active,,ST ANTHONY,MN,55418-2492,Hennepin
,,,Family Child Care,Active,,Minneapolis,MN,55418-3618,Hennepin
,,,Home and Community Based Services,Active,,Minneapolis,MN,55418-7300,Hennepin
,,,Adult Day Care Services,Active,,Minneapolis,MN,55418-1908,Hennepin
,,,Home and Community Based Services,Active,,Saint Anthony,MN,55418-2595,Hennepin
,,,Adult Foster Care,Active,,Minneapolis,MN,55418-3642,Hennepin
,,,Home and Community Based Services,Active,,Minneapolis,MN,55418-2491,Hennepin
,,,Home and Community Based Services,Active,,ST ANTHONY,MN,55418-2497,Hennepin
,,,Family Child Care,Active,,Minneapolis,MN,55418-1331,Hennepin
,,,Home and Community Based Services,Active,,ST ANTHONY,MN,55418-2500,Hennepin
,,,Family Child Care,Active,,Minneapolis,MN,55418-2222,Hennepin
,,,Family Child Care,Active,,Minneapolis,MN,55418-1317,Hennepin
,,,Home and Community Based Services - Community Residential Setting,Active,,Saint Anthony Village,MN,55418-7135,Hennepin
,,,Home and Community Based Services - Community Residential Setting,Active,,Minneapolis,MN,55418-2137,Hennepin
,,,Home and Community Based Services,Active,,ST ANTHONY,MN,55418-2431,Hennepin
,,,Home and Community Based Services - Community Residential Setting,Active,,Minneapolis,MN,55418-2462,Hennepin
,,,Home and Community Based Services - Community Residential Setting,Active,,Minneapolis,MN,55418-2467,Hennepin
,,,Family Child Care,Active,,Minneapolis,MN,55418-2622,Hennepin
,,,Home and Community Based Services,Active,,Minneapolis,MN,55418-2497,Hennepin
,,,Home and Community Based Services - Community Residential Setting,Active,,ST ANTHONY,MN,55418-1540,Hennepin
,,,Substance Use Disorder Treatment,Active,,Minneapolis,MN,55418-1343,Hennepin
,,,Home and Community Based Services,Active,,Minneapolis,MN,55418-2595,Hennepin
,,,Child Care Center,Active,,Minneapolis,MN,55418-2664,Hennepin
,,,Home and Community Based Services,Active,,Minneapolis,MN,55418-2488,Hennepin
,,,Home and Community Based Services,Active,,Minneapolis,MN,55418-3034,Hennepin
,,,Home and Community Based Services,Temp Immediate Suspension: Subject to Appeal as of 12/19/2025,,Minneapolis,MN,55418-1407,Hennepin
,,,Certified Child Care Center,Active,,Saint Anthony,MN,55418-1667,Hennepin
,,,Certified Child Care Center,Active,,Saint Anthony,MN,55418-1759,Hennepin
,,,Home and Community Based Services,Active,,Minneapolis,MN,55418-3254,Hennepin
,,,Family Child Care,Active,,Saint Anthony,MN,55418,Hennepin
,,,Family Child Care,Active,,Minneapolis,MN,55418-1619,Hennepin
,,,Substance Use Disorder Treatment,Active,,Saint Anthony,MN,55418-2490,Hennepin
,,,Adult Day Care Services,Active,,ST ANTHONY,MN,55418-2591,Hennepin
,,,Family Child Care,Active,,Minneapolis,MN,55418-4136,Hennepin
,,,Child Care Center,Active,,Minneapolis,MN,55418-4113,Hennepin
,,,Child Care Center,Active,,Minneapolis,MN,55418-2268,Hennepin
,,,Home and Community Based Services - Community Residential Setting,Active,,Minneapolis,MN,55418-1106,Hennepin
,,,Home and Community Based Services,Active,,Minneapolis,MN,55418-4832,Hennepin
,,,Child Care Center,Active,,Minneapolis,MN,55418-1604,Hennepin
,,,Child Care Center,Active,,Minneapolis,MN,55418-4006,Hennepin
,,,Home and Community Based Services,Active,,ST ANTHONY,MN,55418-2490,Hennepin
,,,Home and Community Based Services,Active,,Minneapolis,MN,55418-3710,Hennepin
,,,Certified Child Care Center,Active,,Minneapolis,MN,55418-1423,Hennepin
,,,Certified Child Care Center,Active,,Minneapolis,MN,55418-3932,Hennepin
,,,Certified Child Care Center,Active,,Minneapolis,MN,55418-2104,Hennepin
,,,Home and Community Based Services - Community Residential Setting,Active,,Saint Anthony Village,MN,55418-0000,Hennepin
,,,Family Child Care,Active,,Minneapolis,MN,55418-3410,Hennepin
,,,Home and Community Based Services,Active,,Saint Anthony,MN,55418-2489,Hennepin
,,,Adult Day Care Services,Active,,ST ANTHONY,MN,55418-3208,Hennepin
,,,Home and Community Based Services,Active,,Minneapolis,MN,55418-2122,Hennepin
,,,Home and Community Based Services,Active,,Minneapolis,MN,55418-4356,Hennepin
,,,Family Child Care,Active,,Minneapolis,MN,55418-1514,Hennepin
,,,Family Child Care,Active,,Minneapolis,MN,55418-3637,Hennepin
,,,Home and Community Based Services,Active,,Saint Anthony,MN,55418-2497,Hennepin
,,,Child Care Center,Active,,Minneapolis,MN,55418-3208,Hennepin
,,,Child Care Center,Active,,Minneapolis,MN,55418-3731,Hennepin
,,,Home and Community Based Services,Active,,Saint Anthony,MN,55418-3254,Hennepin
,,,Home and Community Based Services,Active,,Minneapolis,MN,55418-5300,Hennepin
,,,Substance Use Disorder Treatment,Denied as of 12/18/2025,,Minneapolis,MN,55418-1147,Hennepin
,,,Home and Community Based Services,Active,,Minneapolis,MN,55418-2490,Hennepin
,,,Home and Community Based Services,Active,,Minneapolis,MN,55418-2500,Hennepin
,,,Home and Community Based Services,Active,,Minneapolis,MN,55418-4344,Hennepin
,,,Child Care Center,Active,,Saint Anthony,MN,55418-2371,Hennepin
,,,Family Child Care,Active,,Minneapolis,MN,55418-2325,Hennepin
,,,Child Foster Residence Setting,Active,,Minneapolis,MN,55419-2031,Hennepin
,,,Home and Community Based Services,Active,,Minneapolis,MN,55419-2539,Hennepin
,,,Child Care Center,Active,,Minneapolis,MN,55419-2221,Hennepin
,,,Adult Day Care Services,Active,,Minneapolis,MN,55419-2202,Hennepin
,,,Child Care Center,Active,,Minneapolis,MN,55419-2553,Hennepin
,,,Child Care Center,Active,,Minneapolis,MN,55419-1925,Hennepin
,,,Home and Community Based Services - Community Residential Setting,Active,,Minneapolis,MN,55419-5502,Hennepin
,,,Home and Community Based Services - Community Residential Setting,Active,,Minneapolis,MN,55419-2243,Hennepin
,,,Family Child Care,Active,,Minneapolis,MN,55419-5653,Hennepin
,,,Home and Community Based Services,Active,,Minneapolis,MN,55419-2357,Hennepin
,,,Family Child Care,Active,,Minneapolis,MN,55419-5112,Hennepin
,,,Home and Community Based Services - Community Residential Setting,Active,,Minneapolis,MN,55419-5109,Hennepin
,,,Children's Residential Facilities,Active,,Minneapolis,MN,55419-5145,Hennepin
,,,Child Care Center,Active,,Minneapolis,MN,55419-5507,Hennepin
,,,Child Care Center,Active,,Minneapolis,MN,55419,Hennepin
,,,Child Care Center,Active,,Minneapolis,MN,55419-4726,Hennepin
,,,Home and Community Based Services - Community Residential Setting,Active,,Minneapolis,MN,55419-2552,Hennepin
,,,Certified Child Care Center,Active,,Minneapolis,MN,55419-1110,Hennepin
,,,Certified Child Care Center,Active,,Minneapolis,MN,55419-1640,Hennepin
,,,Certified Child Care Center,Active,,Minneapolis,MN,55419-2308,Hennepin
,,,Child Care Center,Active,,Minneapolis,MN,55419-1015,Hennepin
,,,Home and Community Based Services - Community Residential Setting,Active,,Minneapolis,MN,55419-5003,Hennepin
,,,Home and Community Based Services - Community Residential Setting,Active,,Minneapolis,MN,55419-5007,Hennepin
,,,Home and Community Based Services,Active,,Minneapolis,MN,55419-2361,Hennepin
,,,Home and Community Based Services - Community Residential Setting,Active,,Minneapolis,MN,55419-5220,Hennepin
,,,Home and Community Based Services - Community Residential Setting,Active,,Minneapolis,MN,55419-1712,Hennepin
,,,Intensive Residential Treatment Services and Residential Crisis Stabilization,Active,,Minneapolis,MN,55419-2222,Hennepin
,,,Certified Child Care Center,Active,,Minneapolis,MN,55419-1171,Hennepin
,,,Home and Community Based Services - Community Residential Setting,Active,,Minneapolis,MN,55419-2560,Hennepin
,,,Home and Community Based Services - Community Residential Setting,Active,,Minneapolis,MN,55419-0000,Hennepin
,,,Child Care Center,Active,,Minneapolis,MN,55419-5535,Hennepin
,,,Child Care Center,Active,,Minneapolis,MN,55419-4736,Hennepin
,,,Adult Foster Care,Active,,Minneapolis,MN,55419-2568,Hennepin
,,,Family Child Care,Active,,Minneapolis,MN,55419-5018,Hennepin
,,,Home and Community Based Services - Community Residential Setting,Active,,Minneapolis,MN,55419-2214,Hennepin
,,,Home and Community Based Services - Community Residential Setting,Active,,Minneapolis,MN,55419-2027,Hennepin
,,,Home and Community Based Services,Active,,Bloomington,MN,55420-2717,Hennepin
,,,Home and Community Based Services,Active,,Bloomington,MN,55420-3617,Hennepin
,,,Home and Community Based Services,Active,,Bloomington,MN,55420-2219,Hennepin
,,,Home and Community Based Services - Community Residential Setting,Active,,Bloomington,MN,55420-3823,Hennepin
,,,Home and Community Based Services,Active,,Bloomington,MN,55420-1003,Hennepin
,,,Home and Community Based Services,Active,,Bloomington,MN,55420-3487,Hennepin
,,,Home and Community Based Services,Active,,Bloomington,MN,55420-5644,Hennepin
,,,Home and Community Based Services,Active,,Bloomington,MN,55420-5690,Hennepin
,,,Home and Community Based Services - Community Residential Setting,Active,,Bloomington,MN,55420-4821,Hennepin
,,,Home and Community Based Services - Community Residential Setting,Active,,Bloomington,MN,55420-2412,Hennepin
,,,Home and Community Based Services - Community Residential Setting,Active,,Bloomington,MN,55420-2112,Hennepin
,,,Home and Community Based Services - Community Residential Setting,Active,,Bloomington,MN,55420-1053,Hennepin
,,,Family Child Care,Active,,Bloomington,MN,55420-3739,Hennepin
,,,Home and Community Based Services,Active,,Bloomington,MN,55420-2754,Hennepin
,,,Family Child Care,Active,,Bloomington,MN,55420-4702,Hennepin
,,,Home and Community Based Services,Active,,Bloomington,MN,55420-4866,Hennepin
,,,Adult Foster Care,Active,,Bloomington,MN,55420-4311,Hennepin
,,,Child Care Center,Active,,Bloomington,MN,55420-1206,Hennepin
,,,Family Child Care,Active,,Bloomington,MN,55420-5204,Hennepin
,,,Home and Community Based Services - Community Residential Setting,Active,,Bloomington,MN,55420-0000,Hennepin
,,,Home and Community Based Services - Community Residential Setting,Active,,Bloomington,MN,55420-5127,Hennepin
,,,Home and Community Based Services - Community Residential Setting,Active,,Bloomington,MN,55420-4110,Hennepin
,,,Home and Community Based Services,Active,,Minneapolis,MN,55420-5698,Hennepin
,,,Home and Community Based Services,Active,,Bloomington,MN,55420-3818,Hennepin
,,,Family Child Care,Active,,Bloomington,MN,55420-4563,Hennepin
,,,Home and Community Based Services - Community Residential Setting,Active,,Bloomington,MN,55420-2640,Hennepin
,,,Home and Community Based Services - Community Residential Setting,Active,,Minneapolis,MN,55420-5550,Hennepin
,,,Home and Community Based Services - Community Residential Setting,Active,,Bloomington,MN,55420-3838,Hennepin
,,,Home and Community Based Services - Community Residential Setting,Active,,Bloomington,MN,55420-4512,Hennepin
,,,Family Child Care,Active,,Minneapolis,MN,55420-2239,Hennepin
,,,Certified Child Care Center,Active,,Bloomington,MN,55420,Hennepin
,,,Home and Community Based Services,Active,,Bloomington,MN,55420-1304,Hennepin
,,,Home and Community Based Services - Community Residential Setting,Active,,Bloomington,MN,55420-5003,Hennepin
,,,Home and Community Based Services - Community Residential Setting,Active,,Bloomington,MN,55420-3831,Hennepin
,,,Family Child Care,Active,,Bloomington,MN,55420-2476,Hennepin
,,,Certified Child Care Center,Active,,Bloomington,MN,55420-2919,Hennepin
,,,Family Child Care,Active,,Bloomington,MN,55420-5409,Hennepin
,,,Home and Community Based Services - Community Residential Setting,Active,,Bloomington,MN,55420-2228,Hennepin
,,,Home and Community Based Services - Community Residential Setting,Active,,Bloomington,MN,55420-3030,Hennepin
,,,Family Child Care,Active,,Bloomington,MN,55420-3925,Hennepin
,,,Child Foster Residence Setting,Active,,Bloomington,MN,55420-4907,Hennepin
,,,Family Child Care,Active,,Bloomington,MN,55420-1327,Hennepin
,,,Child Care Center,Closed as of 08/02/2025,,Bloomington,MN,55420-4213,Hennepin
,,,Home and Community Based Services - Day Services Facility,Active,,Bloomington,MN,55420-3517,Hennepin
,,,Child Care Center,Active,,Bloomington,MN,55420-2709,Hennepin
,,,Child Care Center,Active,,Bloomington,MN,55420-1231,Hennepin
,,,Home and Community Based Services,Active,,Bloomington,MN,55420-2745,Hennepin
,,,Child Care Center,Active,,Minneapolis,MN,55420-5305,Hennepin
,,,Home and Community Based Services - Community Residential Setting,Active,,Bloomington,MN,55420-5007,Hennepin
,,,Home and Community Based Services - Community Residential Setting,Active,,Bloomington,MN,55420-4406,Hennepin
,,,Home and Community Based Services - Community Residential Setting,Active,,Bloomington,MN,55420-3812,Hennepin
,,,Family Child Care,Active,,Bloomington,MN,55420-2401,Hennepin
,,,Family Child Care,Active,,Bloomington,MN,55420-5210,Hennepin
,,,Family Child Care,Active,,Bloomington,MN,55420-5261,Hennepin
,,,Child Care Center,Pending Reopening as of 08/15/2025,,Bloomington,MN,55420-4417,Hennepin
,,,Child Care Center,Active,,Bloomington,MN,55420-2826,Hennepin
,,,Family Child Care,Active,,Bloomington,MN,55420-3036,Hennepin
,,,Home and Community Based Services - Community Residential Setting,Active,,Bloomington,MN,55420-3628,Hennepin
,,,Home and Community Based Services - Community Residential Setting,Active,,Minneapolis,MN,55420-3628,Hennepin
,,,Home and Community Based Services - Community Residential Setting,Active,,Bloomington,MN,55420-3850,Hennepin
,,,Family Child Care,Active,,Bloomington,MN,55420-4729,Hennepin
,,,Home and Community Based Services,Active,,Bloomington,MN,55420-2747,Hennepin
,,,Family Child Care,Active,,Bloomington,MN,55420-1223,Hennepin
,,,Child Care Center,Active,,Bloomington,MN,55420-2237,Hennepin
,,,Intensive Residential Treatment Services and Residential Crisis Stabilization,Active,,Bloomington,MN,55420-2918,Hennepin
,,,Home and Community Based Services,Active,,Bloomington,MN,55420-5434,Hennepin
,,,Home and Community Based Services - Community Residential Setting,Active,,Bloomington,MN,55420-5027,Hennepin
,,,Family Child Care,Active,,Bloomington,MN,55420-1213,Hennepin
,,,Child Foster Residence Setting,Active,,Bloomington,MN,55420-3854,Hennepin
,,,Home and Community Based Services - Community Residential Setting,Active,,Bloomington,MN,55420-5336,Hennepin
,,,Home and Community Based Services - Community Residential Setting,Active,,Bloomington,MN,55420-4543,Hennepin
,,,Home and Community Based Services,Active,,Columbia Heights,MN,55421-2953,Anoka
,,,Certified Child Care Center,Active,,Minneapolis,MN,55421-1939,Anoka
,,,Family Child Care,Active,,Columbia Heights,MN,55421-1845,Anoka
,,,Home and Community Based Services,Active,,Columbia Heights,MN,55421-2920,Anoka
,,,Home and Community Based Services,Active,,Columbia Heights,MN,55421-2901,Anoka
,,,Home and Community Based Services,Active,,Columbia Heights,MN,55421-0000,Anoka
,,,Adult Day Care Services,Active,,Minneapolis,MN,55421-3631,Hennepin
,,,Home and Community Based Services,Active,,Columbia Heights,MN,55421-2921,Anoka
,,,Adult Foster Care,Active,,Columbia Heights,MN,55421-3151,Anoka
,,,Home and Community Based Services,Active,,Columbia Heights,MN,55421-3611,Anoka
,,,Family Child Care,Active,,Columbia Heights,MN,55421-2454,Anoka
,,,Child Care Center,Active,,Minneapolis,MN,55421-3833,Anoka
,,,Child Care Center,Active,,Minneapolis,MN,55421-3851,Anoka
,,,Home and Community Based Services,Active,,SAINT ANTHONY,MN,55421-3424,Anoka
,,,Home and Community Based Services,Active,,Minneapolis,MN,55421-8901,Anoka
,,,Home and Community Based Services,Active,,Columbia Heights,MN,55421-3601,Anoka
,,,Home and Community Based Services,Active,,Columbia Heights,MN,55421-2859,Anoka
,,,Home and Community Based Services,Active,,Minneapolis,MN,55421-3424,Anoka
,,,Intensive Residential Treatment Services and Residential Crisis Stabilization,Active,,Fridley,MN,55421,Anoka
,,,Home and Community Based Services,Active,,Columbia Heights,MN,55421-3371,Anoka
,,,Family Child Care,Active,,Columbia Heights,MN,55421-3249,Anoka
,,,Child Care Center,Active,,Columbia Heights,MN,55421,Anoka
,,,Home and Community Based Services - Community Residential Setting,Active,,Columbia Heights,MN,55421-1753,Anoka
,,,Home and Community Based Services - Community Residential Setting,Active,,Minneapolis,MN,55421-4334,Ramsey
,,,Child Care Center,Active,,Columbia Heights,MN,55421-2929,Anoka
,,,Adult Day Care Services,Active,,Columbia Heights,MN,55421-2903,Anoka
,,,Child Care Center,Closed as of 10/11/2025,,Columbia Hts,MN,55421,Anoka
,,,Family Child Care,Active,,Columbia Heights,MN,55421-3258,Anoka
,,,Home and Community Based Services,Active,,Columbia Heights,MN,55421-2989,Anoka
,,,Family Child Care,Active,,Columbia Heights,MN,55421-3801,Anoka
,,,Adult Foster Care,Active,,Columbia Heights,MN,55421-1637,Anoka
,,,Child Foster Residence Setting,Active,,Columbia Heights,MN,55421-1604,Anoka
,,,Child Care Center,Active,,Minneapolis,MN,55421,Anoka
,,,Home and Community Based Services - Community Residential Setting,Active,,Columbia Heights,MN,55421-3232,Anoka
,,,Certified Child Care Center,Active,,Columbia Heights,MN,55421-1941,Anoka
,,,Certified Child Care Center,Active,,Columbia Heights,MN,55421-1708,Anoka
,,,Home and Community Based Services,Active,,Columbia Heights,MN,55421-2955,Anoka
,,,Family Child Care,Active,,Columbia Heights,MN,55421-4003,Anoka
,,,Family Child Care,Active,,Fridley,MN,55421-1863,Anoka
,,,Child Care Center,Active,,Fridley,MN,55421-1262,Anoka
,,,Family Child Care,Active,,Columbia Heights,MN,55421-2829,Anoka
,,,Home and Community Based Services,Active,,Columbia Heights,MN,55421-3159,Anoka
,,,Child Care Center,Active,,Minneapolis,MN,55421-1747,Anoka
,,,Home and Community Based Services - Community Residential Setting,Active,,Fridley,MN,55421-1146,Anoka
,,,Home and Community Based Services - Community Residential Setting,Active,,Columbia Heights,MN,55421-2475,Anoka
,,,Family Child Care,Active,,Columbia Heights,MN,55421-2935,Anoka
,,,Home and Community Based Services,Active,,Minneapolis,MN,55421-2955,Anoka
,,,Family Child Care,Active,,Columbia Heights,MN,55421-2019,Anoka
,,,Child Care Center,Active,,Columbia Heights,MN,55421-2925,Anoka
,,,Adult Foster Care,Active,,Columbia Heights,MN,55421-2258,Anoka
,,,Home and Community Based Services,Active,,Fridley,MN,55421-1522,Anoka
,,,Adult Day Care Services,Active,,Columbia Heights,MN,55421-3836,Anoka
,,,Home and Community Based Services - Community Residential Setting,Active,,Columbia Heights,MN,55421-4060,Anoka
,,,Home and Community Based Services,Active,,Minneapolis,MN,55421-3488,Anoka
,,,Home and Community Based Services - Community Residential Setting,Pending Reopening as of 08/07/2025,,Columbia Heights,MN,55421-4016,Anoka
,,,Family Child Care,Active,,Columbia Heights,MN,55421-1645,Anoka
,,,Home and Community Based Services,Active,,Minneapolis,MN,55421-3151,Anoka
,,,Intensive Residential Treatment Services and Residential Crisis Stabilization,Active,,Columbia Heights,MN,55421-3802,Anoka
,,,Family Child Care,Active,,Columbia Heights,MN,55421-1758,Anoka
,,,Family Child Care,Active,,Columbia Heights,MN,55421-2209,Anoka
,,,Family Child Care,Active,,Fridley,MN,55421-1155,Anoka
,,,Home and Community Based Services,Active,,SAINT ANTHONY,MN,55421-3488,Anoka
,,,Family Child Care,Active,,Columbia Heights,MN,55421-2229,Anoka
,,,Home and Community Based Services,Active,,Golden Valley,MN,55422-3944,Hennepin
,,,Home and Community Based Services,Active,,Golden Valley,MN,55422-4361,Hennepin
,,,Home and Community Based Services - Community Residential Setting,Active,,Minneapolis,MN,55422-4101,Hennepin
,,,Home and Community Based Services - Residential Services Facility,Active,,Robbinsdale,MN,55422,Hennepin
,,,Home and Community Based Services - Community Residential Setting,Active,,Golden Valley,MN,55422-0000,Hennepin
,,,Child Care Center,Closed as of 09/04/2025,,Minneapolis,MN,55422,Hennepin
,,,Home and Community Based Services - Community Residential Setting,Active,,Golden Valley,MN,55422-4620,Hennepin
,,,Home and Community Based Services,Active,,Golden Valley,MN,55422-4327,Hennepin
,,,Home and Community Based Services - Community Residential Setting,Active,,Golden Valley,MN,55422-2721,Hennepin
,,,Home and Community Based Services - Community Residential Setting,Active,,Robbinsdale,MN,55422-1142,Hennepin
,,,Home and Community Based Services,Active,,Golden Valley,MN,55422-4509,Hennepin
,,,Home and Community Based Services,Active,,Golden Valley,MN,55422-4374,Hennepin
,,,Child Care Center,Active,,Minneapolis,MN,55422-5124,Hennepin
,,,Home and Community Based Services,Active,,Minneapolis,MN,55422-5605,Hennepin
,,,Home and Community Based Services,Active,,Golden Valley,MN,55422-4397,Hennepin
,,,Family Child Care,Active,,Crystal,MN,55422-1105,Hennepin
,,,Home and Community Based Services - Community Residential Setting,Active,,Crystal,MN,55422-0000,Hennepin
,,,Home and Community Based Services,Active,,Minneapolis,MN,55422-4353,Hennepin
,,,Child Foster Residence Setting,Active,,Brooklyn Park,MN,55422,Hennepin
,,,Home and Community Based Services - Community Residential Setting,Active,,Robbinsdale,MN,55422-2912,Hennepin
,,,Home and Community Based Services - Community Residential Setting,Active,,Robbinsdale,MN,55422-2908,Hennepin
,,,Home and Community Based Services,Active,,Minneapolis,MN,55422-4360,Hennepin
,,,Home and Community Based Services,Active,,Golden Valley,MN,55422,Hennepin
,,,Substance Use Disorder Treatment,Active,,Golden Valley,MN,55422-4805,Hennepin
,,,Family Child Care,Closed as of 08/22/2025,,Crystal,MN,55422-1264,Hennepin
,,,Home and Community Based Services - Community Residential Setting,Active,,Robbinsdale,MN,55422-4110,Hennepin
,,,Home and Community Based Services - Community Residential Setting,Active,,Robbinsdale,MN,55422-1572,Hennepin
,,,Child Care Center,Closed as of 12/20/2025,,Crystal,MN,55422,Hennepin
,,,Home and Community Based Services,Active,,Minneapolis,MN,55422-4374,Hennepin
,,,Home and Community Based Services - Community Residential Setting,Active,,Crystal,MN,55422-1924,Hennepin
,,,Home and Community Based Services,Active,,Golden Valley,MN,55422-4535,Hennepin
,,,Home and Community Based Services - Residential Services Facility,Active,,Minneapolis,MN,55422-3648,Hennepin
,,,Family Child Care,Active,,Crystal,MN,55422-1015,Hennepin
,,,Home and Community Based Services,Active,,Crystal,MN,55422-1935,Hennepin
,,,Family Child Care,Active,,Robbinsdale,MN,55422-1567,Hennepin
,,,Child Care Center,Active,,Minneapolis,MN,55422-5130,Hennepin
,,,Home and Community Based Services - Community Residential Setting,Active,,Crystal,MN,55422-1639,Hennepin
,,,Home and Community Based Services - Community Residential Setting,Active,,Crystal,MN,55422-2847,Hennepin
,,,Home and Community Based Services - Community Residential Setting,Active,,Crystal,MN,55422-2841,Hennepin
,,,Certified Child Care Center,Pending Reopening as of 08/19/2023,,Golden Valley,MN,55422-5120,Hennepin
,,,Certified Child Care Center,Active,,Robbinsdale,MN,55422-1592,Hennepin
,,,Certified Child Care Center,Active,,Golden Valley,MN,55422-3607,Hennepin
,,,Home and Community Based Services,Active,,Golden Valley,MN,55422-4350,Hennepin
,,,Family Child Care,Active,,Robbinsdale,MN,55422-1729,Hennepin
,,,Certified Child Care Center,Active,,Minneapolis,MN,55422-5120,Hennepin
,,,Child Care Center,Active,,Robbinsdale,MN,55422-1619,Hennepin
,,,Child Care Center,Active,,Golden Valley,MN,55422-3927,Hennepin
,,,Home and Community Based Services - Community Residential Setting,Active,,Crystal,MN,55422-1914,Hennepin
,,,Home and Community Based Services - Residential Services Facility,Active,,Robbinsdale,MN,55422-2207,Hennepin
,,,Home and Community Based Services - Residential Services Facility,Active,,Robbinsdale,MN,55422-3735,Hennepin
,,,Home and Community Based Services,Active,,Golden Valley,MN,55422-4367,Hennepin
,,,Child Care Center,Active,,Golden Valley,MN,55422-5070,Hennepin
,,,Home and Community Based Services,Active,,Golden Valley,MN,55422-4365,Hennepin
,,,Home and Community Based Services - Community Residential Setting,Active,,Crystal,MN,55422-1025,Hennepin
,,,Home and Community Based Services,Active,,Golden Valley,MN,55422-4528,Hennepin
,,,Substance Use Disorder Treatment,Active,,Crystal,MN,55422-2402,Hennepin
,,,Home and Community Based Services,Active,,Golden Valley,MN,55422-4387,Hennepin
,,,Family Child Care,Active,,Crystal,MN,55422-1910,Hennepin
,,,Child Foster Residence Setting,Active,,Golden Valley,MN,55422-4163,Hennepin
,,,Family Child Care,Active,,Golden Valley,MN,55422-3318,Hennepin
,,,Home and Community Based Services - Community Residential Setting,Active,,Minneapolis,MN,55422-2321,Hennepin
,,,Home and Community Based Services - Community Residential Setting,Active,,Robbinsdale,MN,55422-2121,Hennepin
,,,Home and Community Based Services - Community Residential Setting,Active,,Golden Valley,MN,55422-2746,Hennepin
,,,Family Child Care,Active,,Robbinsdale,MN,55422-1404,Hennepin
,,,Child Foster Residence Setting,Active,,Robbinsdale,MN,55422-3205,Hennepin
,,,Home and Community Based Services - Community Residential Setting,Active,,Crystal,MN,55422-2876,Hennepin
,,,Home and Community Based Services - Community Residential Setting,Active,,Golden Valley,MN,55422-2737,Hennepin
,,,Home and Community Based Services - Community Residential Setting,Active,,Crystal,MN,55422-4123,Hennepin
,,,Home and Community Based Services - Community Residential Setting,Active,,Golden Valley,MN,55422-3335,Hennepin
,,,Home and Community Based Services - Community Residential Setting,Active,,Robbinsdale,MN,55422-2018,Hennepin
,,,Home and Community Based Services - Community Residential Setting,Active,,Crystal,MN,55422-1018,Hennepin
,,,Child Care Center,Active,,Robbinsdale,MN,55422-2283,Hennepin
,,,Home and Community Based Services - Community Residential Setting,Active,,Robbinsdale,MN,55422-0000,Hennepin
,,,Home and Community Based Services - Community Residential Setting,Active,,Robbinsdale,MN,55422-2059,Hennepin
,,,Home and Community Based Services - Community Residential Setting,Active,,Crystal,MN,55422-2845,Hennepin
,,,Family Child Care,Active,,Robbinsdale,MN,55422-2147,Hennepin
,,,Home and Community Based Services,Active,,Minneapolis,MN,55422-4344,Hennepin
,,,Intensive Residential Treatment Services and Residential Crisis Stabilization,Active,,Robbinsdale,MN,55422-2336,Hennepin
,,,Home and Community Based Services - Community Residential Setting,Active,,Crystal,MN,55422-1030,Hennepin
,,,Family Child Care,Active,,Golden Valley,MN,55422-3564,Hennepin
,,,Family Child Care,Active,,Robbinsdale,MN,55422-3104,Hennepin
,,,Family Child Care,Active,,Robbinsdale,MN,55422-1252,Hennepin
,,,Home and Community Based Services,Active,,Richfield,MN,55423-2784,Hennepin
,,,Home and Community Based Services - Community Residential Setting,Active,,Richfield,MN,55423-2420,Hennepin
,,,Child Care Center,Active,,Richfield,MN,55423,Hennepin
,,,Home and Community Based Services - Community Residential Setting,Active,,Richfield,MN,55423-1024,Hennepin
,,,Home and Community Based Services - Community Residential Setting,Active,,Richfield,MN,55423-1225,Hennepin
,,,Child Care Center,Closed as of 08/23/2025,,Richfield,MN,55423-3448,Hennepin
,,,Home and Community Based Services - Community Residential Setting,Active,,Richfield,MN,55423-2909,Hennepin
,,,Home and Community Based Services - Community Residential Setting,Active,,Richfield,MN,55423-2020,Hennepin
,,,Home and Community Based Services - Community Residential Setting,Active,,Richfield,MN,55423-1927,Hennepin
,,,Home and Community Based Services - Community Residential Setting,Active,,Richfield,MN,55423-3206,Hennepin
,,,Home and Community Based Services - Community Residential Setting,Active,,Richfield,MN,55423-3445,Hennepin
,,,Family Child Care,Active,,Richfield,MN,55423-2097,Hennepin
,,,Child Care Center,Active,,Richfield,MN,55423-2638,Hennepin
,,,Family Child Care,Active,,Richfield,MN,55423-1106,Hennepin
,,,Family Child Care,Active,,Richfield,MN,55423-2052,Hennepin
,,,Child Care Center,Active,,Richfield,MN,55423-3629,Hennepin
,,,Family Child Care,Active,,Richfield,MN,55423-4451,Hennepin
,,,Family Child Care,Active,,Richfield,MN,55423-3345,Hennepin
,,,Home and Community Based Services - Community Residential Setting,Active,,Richfield,MN,55423-2908,Hennepin
,,,Family Child Care,Active,,Richfield,MN,55423-3318,Hennepin
,,,Child Foster Residence Setting,Active,,Richfield,MN,55423-2457,Hennepin
,,,Home and Community Based Services - Community Residential Setting,Active,,Richfield,MN,55423-4627,Hennepin
,,,Home and Community Based Services - Community Residential Setting,Active,,Richfield,MN,55423-3052,Hennepin
,,,Home and Community Based Services - Community Residential Setting,Active,,Richfield,MN,55423-2214,Hennepin
,,,Home and Community Based Services - Community Residential Setting,Active,,Richfield,MN,55423-0000,Hennepin
,,,Adult Foster Care,Active,,Richfield,MN,55423-3559,Hennepin
,,,Family Child Care,Active,,Richfield,MN,55423-2326,Hennepin
,,,Family Child Care,Active,,Richfield,MN,55423-2533,Hennepin
,,,Family Child Care,Active,,Richfield,MN,55423-2104,Hennepin
,,,Home and Community Based Services,Active,,Minneapolis,MN,55423-1001,Hennepin
,,,Child Care Center,Active,,Richfield,MN,55423-1099,Hennepin
,,,Family Child Care,Active,,Richfield,MN,55423-3225,Hennepin
,,,Home and Community Based Services,Active,,Richfield,MN,55423-4055,Hennepin
,,,Child Care Center,Active,,Richfield,MN,55423-1939,Hennepin
,,,Family Child Care,Active,,Richfield,MN,55423-2125,Hennepin
,,,Home and Community Based Services - Community Residential Setting,Active,,Richfield,MN,55423-3054,Hennepin
,,,Home and Community Based Services - Community Residential Setting,Active,,Richfield,MN,55423-3944,Hennepin
,,,Family Child Care,Active,,Richfield,MN,55423-3528,Hennepin
,,,Home and Community Based Services,Active,,Richfield,MN,55423-2719,Hennepin
,,,Home and Community Based Services - Community Residential Setting,Active,,Minneapolis,MN,55423-3919,Hennepin
,,,Home and Community Based Services - Community Residential Setting,Active,,Richfield,MN,55423-4445,Hennepin
,,,Home and Community Based Services - Community Residential Setting,Active,,Minneapolis,MN,55423-4328,Hennepin
,,,Home and Community Based Services - Community Residential Setting,Active,,Richfield,MN,55423-4572,Hennepin
,,,Home and Community Based Services - Community Residential Setting,Active,,Richfield,MN,55423-4032,Hennepin
,,,Home and Community Based Services - Community Residential Setting,Revoked as of 10/16/2025,,Richfield,MN,55423-1771,Hennepin
,,,Home and Community Based Services,Active,,Richfield,MN,55423-4647,Hennepin
,,,Family Child Care,Active,,Richfield,MN,55423-2727,Hennepin
,,,Home and Community Based Services,Active,,Richfield,MN,55423-1216,Hennepin
,,,Child Care Center,Active,,Richfield,MN,55423-1140,Hennepin
,,,Child Care Center,Active,,Minneapolis,MN,55423-1751,Hennepin
,,,Child Foster Residence Setting,Active,,Richfield,MN,55423-2301,Hennepin
,,,Home and Community Based Services,Active,,Richfield,MN,55423-1613,Hennepin
,,,Child Caring-Placing Agency,Active,,Minneapolis,MN,55423-1616,Hennepin
,,,Child Care Center,Active,,Richfield,MN,55423-3069,Hennepin
,,,Family Child Care,Active,,Richfield,MN,55423-2471,Hennepin
,,,Home and Community Based Services - Community Residential Setting,Active,,Minneapolis,MN,55423-3323,Hennepin
,,,Home and Community Based Services - Community Residential Setting,Active,,Richfield,MN,55423-1339,Hennepin
,,,Home and Community Based Services - Community Residential Setting,Active,,Richfield,MN,55423-3314,Hennepin
,,,Home and Community Based Services - Community Residential Setting,Active,,Richfield,MN,55423-3338,Hennepin
,,,Home and Community Based Services - Community Residential Setting,Active,,Richfield,MN,55423-3349,Hennepin
,,,Home and Community Based Services - Community Residential Setting,Active,,Richfield,MN,55423-2356,Hennepin
,,,Home and Community Based Services - Community Residential Setting,Active,,Richfield,MN,55423-2239,Hennepin
,,,Home and Community Based Services - Community Residential Setting,Active,,Richfield,MN,55423-2133,Hennepin
,,,Home and Community Based Services - Community Residential Setting,Active,,Richfield,MN,55423-3514,Hennepin
,,,Family Child Care,Active,,Richfield,MN,55423-2528,Hennepin
,,,Home and Community Based Services,Active,,Richfield,MN,55423-3347,Hennepin
,,,Home and Community Based Services,Active,,Richfield,MN,55423-4325,Hennepin
,,,Home and Community Based Services - Community Residential Setting,Active,,Richfield,MN,55423-4567,Hennepin
,,,Child Care Center,Active,,Richfield,MN,55423-6401,Hennepin
,,,Child Care Center,Active,,Richfield,MN,55423-2408,Hennepin
,,,Home and Community Based Services - Community Residential Setting,Active,,Minneapolis,MN,55423-4606,Hennepin
,,,Home and Community Based Services - Community Residential Setting,Active,,Minneapolis,MN,55423-3340,Hennepin
,,,Home and Community Based Services - Community Residential Setting,Active,,Richfield,MN,55423-4123,Hennepin
,,,Child Care Center,Active,,Richfield,MN,55423-1010,Hennepin
,,,Child Care Center,Active,,Richfield,MN,55423-3337,Hennepin
,,,Child Care Center,Active,,Richfield,MN,55423-3354,Hennepin
,,,Family Child Care,Active,,Richfield,MN,55423-2215,Hennepin
,,,Child Care Center,Active,,Richfield,MN,55423-3071,Hennepin
,,,Home and Community Based Services,Active,,Richfield,MN,55423-3051,Hennepin
,,,Home and Community Based Services,Active,,Richfield,MN,55423-2488,Hennepin
,,,Family Child Care,Active,,Richfield,MN,55423-4462,Hennepin
,,,Home and Community Based Services - Community Residential Setting,Active,,Richfield,MN,55423-1014,Hennepin
,,,Home and Community Based Services - Community Residential Setting,Active,,Richfield,MN,55423-2863,Hennepin
,,,Home and Community Based Services - Community Residential Setting,Active,,Richfield,MN,55423-3544,Hennepin
,,,Mental Health Clinic,Active,,Minneapolis,MN,55423-1675,Hennepin
,,,Child Care Center,Active,,Richfield,MN,55423-1038,Hennepin
,,,Certified Child Care Center,Active,,Edina,MN,55424-2400,Hennepin
,,,Certified Child Care Center,Active,,Edina,MN,55424-1713,Hennepin
,,,Home and Community Based Services,Active,,Edina,MN,55424-1300,Hennepin
,,,Child Care Center,Active,,Edina,MN,55424-1432,Hennepin
,,,Child Care Center,Active,,Edina,MN,55424,Hennepin
,,,Home and Community Based Services - Community Residential Setting,Active,,Edina,MN,55424-4123,Hennepin
,,,Child Foster Residence Setting,Denied as of 02/21/2025,,Edina,MN,55424-1841,Hennepin
,,,Child Care Center,Active,,Edina,MN,55424-1617,Hennepin
,,,Family Child Care,Active,,Edina,MN,55424-1936,Hennepin
,,,Home and Community Based Services,Active,,Bloomington,MN,55425-1509,Hennepin
,,,Home and Community Based Services,Active,,Bloomington,MN,55425-1523,Hennepin
,,,Home and Community Based Services,Active,,Bloomington,MN,55425-1215,Hennepin
,,,Home and Community Based Services - Community Residential Setting,Active,,Bloomington,MN,55425-2212,Hennepin
,,,Home and Community Based Services,Active,,Minneapolis,MN,55425-4503,Hennepin
,,,Substance Use Disorder Treatment,Active,,Bloomington,MN,55425-1205,Hennepin
,,,Home and Community Based Services,Active,,Bloomington,MN,55425-1562,Hennepin
,,,Family Child Care,Active,,Bloomington,MN,55425-2170,Hennepin
,,,Home and Community Based Services,Active,,Bloomington,MN,55425-1514,Hennepin
,,,Family Child Care,Active,,Bloomington,MN,55425,Hennepin
,,,Home and Community Based Services - Community Residential Setting,Active,,Bloomington,MN,55425-2225,Hennepin
,,,Home and Community Based Services - Community Residential Setting,Active,,Bloomington,MN,55425-1109,Hennepin
,,,Home and Community Based Services,Active,,Bloomington,MN,55425-1506,Hennepin
,,,Home and Community Based Services,Active,,Bloomington,MN,55425-1389,Hennepin
,,,Adult Day Care Services,Active,,Bloomington,MN,55425-1152,Hennepin
,,,Home and Community Based Services,Active,,Bloomington,MN,55425-1381,Hennepin
,,,Home and Community Based Services - Community Residential Setting,Active,,Bloomington,MN,55425-0000,Hennepin
,,,Home and Community Based Services - Community Residential Setting,Active,,Bloomington,MN,55425-2546,Hennepin
,,,Home and Community Based Services,Active,,Bloomington,MN,55425-1539,Hennepin
,,,Home and Community Based Services,Active,,Bloomington,MN,55425-1528,Hennepin
,,,Intensive Residential Treatment Services and Residential Crisis Stabilization,Active,,Bloomington,MN,55425-1158,Hennepin
,,,Substance Use Disorder Treatment,Active,,Bloomington,MN,55425-1230,Hennepin
,,,Home and Community Based Services,Active,,Bloomington,MN,55425-0005,Hennepin
,,,Home and Community Based Services,Active,,Bloomington,MN,55425-2562,Hennepin
,,,Family Child Care,Active,,Bloomington,MN,55425-2444,Hennepin
,,,Home and Community Based Services,Active,,Minneapolis,MN,55425-1215,Hennepin
,,,Home and Community Based Services,Active,,Bloomington,MN,55425-1570,Hennepin
,,,Child Care Center,Active,,Bloomington,MN,55425-2041,Hennepin
,,,Home and Community Based Services,Active,,Bloomington,MN,55425-1683,Hennepin
,,,Adult Day Care Services,Active,,Bloomington,MN,55425-2615,Hennepin
,,,Substance Use Disorder Treatment,Active,,Bloomington,MN,55425-1682,Hennepin
,,,Home and Community Based Services,Denied as of 10/20/2025,,Bloomington,MN,55425-2211,Hennepin
,,,Home and Community Based Services,Active,,Bloomington,MN,55425-1386,Hennepin
,,,Home and Community Based Services - Community Residential Setting,Active,,Bloomington,MN,55425-2304,Hennepin
,,,Home and Community Based Services - Community Residential Setting,Active,,Bloomington,MN,55425-1711,Hennepin
,,,Child Care Center,Active,,Minneapolis,MN,55425,Hennepin
,,,Child Care Center,Active,,Bloomington,MN,55425-1208,Hennepin
,,,Home and Community Based Services - Community Residential Setting,Active,,Bloomington,MN,55425-1976,Hennepin
,,,Family Child Care,Active,,Bloomington,MN,55425-2183,Hennepin
,,,Home and Community Based Services,Temp Immediate Suspension: Under Appeal as of 12/09/2025,,Bloomington,MN,55425-2371,Hennepin
,,,Home and Community Based Services - Community Residential Setting,Active,,Bloomington,MN,55425-2157,Hennepin
,,,Home and Community Based Services - Community Residential Setting,Active,,Minneapolis,MN,55426-2337,Hennepin
,,,Home and Community Based Services,Active,,Minneapolis,MN,55426-2718,Hennepin
,,,Home and Community Based Services - Community Residential Setting,Active,,St Louis Park,MN,55426-3703,Hennepin
,,,Home and Community Based Services,Active,,SAINT LOUIS PARK,MN,55426-1820,Hennepin
,,,Home and Community Based Services,Active,,Minneapolis,MN,55426-4223,Hennepin
,,,Home and Community Based Services,Active,,St Louis Park,MN,55426-3906,Hennepin
,,,Family Child Care,Active,,St Louis Park,MN,55426-4306,Hennepin
,,,Family Child Care,Active,,St Louis Park,MN,55426,Hennepin
,,,Mental Health Clinic,Active,,St Louis Park,MN,55426-1626,Hennepin
,,,Mental Health Clinic,Active,,Minneapolis,MN,55426-1365,Hennepin
,,,Home and Community Based Services - Community Residential Setting,Active,,SAINT LOUIS PARK,MN,55426-4342,Hennepin
,,,Home and Community Based Services - Community Residential Setting,Active,,St Louis Park,MN,55426-2932,Hennepin
,,,Home and Community Based Services - Community Residential Setting,Active,,St Louis Park,MN,55426-4143,Hennepin
,,,Home and Community Based Services - Community Residential Setting,Active,,St Louis Park,MN,55426-4900,Hennepin
,,,Child Care Center,Active,,Golden Valley,MN,55426-1527,Hennepin
,,,Adult Foster Care,Active,,SAINT LOUIS PARK,MN,55426-1015,Hennepin
,,,Home and Community Based Services - Community Residential Setting,Active,,St Louis Park,MN,55426-0000,Hennepin
,,,Home and Community Based Services,Active,,St Louis Park,MN,55426-3505,Hennepin
,,,Home and Community Based Services,Active,,St Louis Park,MN,55426-3951,Hennepin
,,,Family Child Care,Active,,St Louis Park,MN,55426-3451,Hennepin
,,,Home and Community Based Services - Day Services Facility,Active,,Golden Valley,MN,55426-0000,Hennepin
,,,Family Child Care,Active,,Minneapolis,MN,55426-1440,Hennepin
,,,Certified Child Care Center,Active,,Saint Louis Park,MN,55426,Hennepin
,,,Certified Child Care Center,Active,,Saint Louis Park,MN,55426-3513,Hennepin
,,,Certified Child Care Center,Active,,Saint Louis Park,MN,55426-3357,Hennepin
,,,Family Child Care,Active,,St Louis Park,MN,55426-2842,Hennepin
,,,Home and Community Based Services,Active,,St Louis Park,MN,55426-3113,Hennepin
,,,Family Child Care,Active,,St Louis Park,MN,55426-3027,Hennepin
,,,Home and Community Based Services - Community Residential Setting,Active,,St Louis Park,MN,55426-2845,Hennepin
,,,Family Child Care,Active,,SAINT LOUIS PARK,MN,55426-3445,Hennepin
,,,Family Child Care,Active,,St Louis Park,MN,55426-1840,Hennepin
,,,Family Child Care,Active,,Golden Valley,MN,55426-1432,Hennepin
,,,Home and Community Based Services - Community Residential Setting,Active,,St Louis Park,MN,55426-2016,Hennepin
,,,Home and Community Based Services - Community Residential Setting,Active,,St Louis Park,MN,55426-1464,Hennepin
,,,Home and Community Based Services - Community Residential Setting,Active,,Minneapolis,MN,55426-3782,Hennepin
,,,Family Child Care,Active,,St Louis Park,MN,55426-3825,Hennepin
,,,Home and Community Based Services,Active,,Minneapolis,MN,55426-1455,Hennepin
,,,Home and Community Based Services - Community Residential Setting,Active,,Minneapolis,MN,55426-2443,Hennepin
,,,Home and Community Based Services - Community Residential Setting,Active,,Minneapolis,MN,55426-2471,Hennepin
,,,Home and Community Based Services - Community Residential Setting,Active,,Minneapolis,MN,55426-0000,Hennepin
,,,Home and Community Based Services - Day Services Facility,Active,,St Louis Park,MN,55426-3400,Hennepin
,,,Home and Community Based Services,Active,,St Louis Park,MN,55426-1853,Hennepin
,,,Home and Community Based Services - Community Residential Setting,Active,,St Louis Park,MN,55426-2968,Hennepin
,,,Child Caring-Placing Agency,Active,,Golden Valley,MN,55426-1360,Hennepin
,,,Child Care Center,Active,,Saint Louis Park,MN,55426-2354,Hennepin
,,,Home and Community Based Services,Active,,Minneapolis,MN,55426-1578,Hennepin
,,,Home and Community Based Services - Day Services Facility,Active,,Golden Valley,MN,55426,Hennepin
,,,Family Child Care,Active,,St Louis Park,MN,55426-3024,Hennepin
,,,Home and Community Based Services - Community Residential Setting,Active,,Golden Valley,MN,55427-0000,Hennepin
,,,Home and Community Based Services - Community Residential Setting,Active,,Golden Valley,MN,55427-4158,Hennepin
,,,Family Child Care,Closed as of 07/03/2025,,Golden Valley,MN,55427-3770,Hennepin
,,,Family Child Care,Active,,New Hope,MN,55427-1131,Hennepin
,,,Home and Community Based Services,Closed as of 11/25/2025,,Crystal,MN,55427-2038,Hennepin
,,,Home and Community Based Services - Community Residential Setting,Active,,Golden Valley,MN,55427-3345,Hennepin
,,,Family Child Care,Closed as of 11/07/2025,,New Hope,MN,55427-2461,Hennepin
,,,Family Child Care,Active,,New Hope,MN,55427-1611,Hennepin
,,,Adult Foster Care,Active,,New Hope,MN,55427-1663,Hennepin
,,,Family Child Care,Active,,New Hope,MN,55427-1749,Hennepin
,,,Child Care Center,Active,,Golden Valley,MN,55427-4506,Hennepin
,,,Home and Community Based Services,Active,,New Hope,MN,55427-1112,Hennepin
,,,Family Child Care,Active,,Crystal,MN,55427-2128,Hennepin
,,,Home and Community Based Services - Community Residential Setting,Active,,New Hope,MN,55427-0000,Hennepin
,,,Home and Community Based Services - Community Residential Setting,Active,,Crystal,MN,55427-1914,Hennepin
,,,Home and Community Based Services - Community Residential Setting,Active,,New Hope,MN,55427-1967,Hennepin
,,,Home and Community Based Services,Active,,New Hope,MN,55427-1235,Hennepin
,,,Substance Use Disorder Treatment,Active,,Crystal,MN,55427,Hennepin
,,,Family Child Care,Active,,New Hope,MN,55427,Hennepin
,,,Child Care Center,Active,,New Hope,MN,55427-1207,Hennepin
,,,Home and Community Based Services - Community Residential Setting,Active,,Crystal,MN,55427-1452,Hennepin
,,,Home and Community Based Services - Community Residential Setting,Active,,Minneapolis,MN,55427-1206,Hennepin
,,,Home and Community Based Services - Community Residential Setting,Active,,Minneapolis,MN,55427-3041,Hennepin
,,,Home and Community Based Services,Active,,Minneapolis,MN,55427-1240,Hennepin
,,,Home and Community Based Services,Active,,New Hope,MN,55427-2850,Hennepin
,,,Certified Child Care Center,Active,,Golden Valley,MN,55427-4117,Hennepin
,,,Certified Child Care Center,Active,,Crystal,MN,55427-3042,Hennepin
,,,Certified Child Care Center,Active,,New Hope,MN,55427-1848,Hennepin
,,,Certified Child Care Center,Active,,New Hope,MN,55427-3233,Hennepin
,,,Certified Child Care Center,Active,,Golden Valley,MN,55427-3616,Hennepin
,,,Home and Community Based Services,Active,,New Hope,MN,55427-1200,Hennepin
,,,Child Care Center,Active,,New Hope,MN,55427-1718,Hennepin
,,,Adult Day Care Services,Active,,Golden Valley,MN,55427-3659,Hennepin
,,,Adult Day Care Services,Active,,Golden Valley,MN,55427-4476,Hennepin
,,,Home and Community Based Services,Active,,Golden Valley,MN,55427-3661,Hennepin
,,,Child Care Center,Active,,Golden Valley,MN,55427-4305,Hennepin
,,,Home and Community Based Services - Community Residential Setting,Active,,Minneapolis,MN,55427-4955,Hennepin
,,,Home and Community Based Services - Residential Services Facility,Active,,Golden Valley,MN,55427,Hennepin
,,,Home and Community Based Services - Community Residential Setting,Active,,Crystal,MN,55427-1405,Hennepin
,,,Child Foster Residence Setting,Closed as of 10/31/2025,,Golden Valley,MN,55427-4953,Hennepin
,,,Home and Community Based Services,Active,,Minneapolis,MN,55427-4305,Hennepin
,,,Home and Community Based Services,Active,,New Hope,MN,55427-1241,Hennepin
,,,Child Care Center,Active,,New Hope,MN,55427-1226,Hennepin
,,,Home and Community Based Services - Community Residential Setting,Active,,New Hope,MN,55427-2450,Hennepin
,,,Home and Community Based Services - Community Residential Setting,Active,,Crystal,MN,55427-1566,Hennepin
,,,Home and Community Based Services - Day Services Facility,Active,,Golden Valley,MN,55427-4357,Hennepin
,,,Child Care Center,Active,,Golden Valley,MN,55427-4673,Hennepin
,,,Family Child Care,Active,,Crystal,MN,55427-2848,Hennepin
,,,Home and Community Based Services - Community Residential Setting,Active,,Minneapolis,MN,55427-4245,Hennepin
,,,Family Child Care,Active,,Golden Valley,MN,55427-3945,Hennepin
,,,Home and Community Based Services - Community Residential Setting,Active,,Crystal,MN,55427-0000,Hennepin
,,,Home and Community Based Services - Community Residential Setting,Active,,New Hope,MN,55427-1641,Hennepin
,,,Home and Community Based Services - Community Residential Setting,Active,,New Hope,MN,55427-2610,Hennepin
,,,Home and Community Based Services - Community Residential Setting,Active,,New Hope,MN,55427-2639,Hennepin
,,,Family Child Care,Active,,New Hope,MN,55427-1038,Hennepin
,,,Home and Community Based Services - Community Residential Setting,Active,,Minneapolis,MN,55427-1138,Hennepin
,,,Family Child Care,Active,,Crystal,MN,55427-1528,Hennepin
,,,Family Child Care,Active,,Golden Valley,MN,55427-4208,Hennepin
,,,Child Care Center,Active,,Minneapolis,MN,55427-4820,Hennepin
,,,Home and Community Based Services,Active,,Crystal,MN,55427-2834,Hennepin
,,,Home and Community Based Services,Active,,New Hope,MN,55427-1240,Hennepin
,,,Home and Community Based Services - Day Services Facility,Active,,Golden Valley,MN,55427-4367,Hennepin
,,,Family Child Care,Active,,Golden Valley,MN,55427-4537,Hennepin
,,,Home and Community Based Services,Active,,Brooklyn Park,MN,55428-1253,Hennepin
,,,Home and Community Based Services - Community Residential Setting,Active,,New Hope,MN,55428-3832,Hennepin
,,,Home and Community Based Services,Active,,Brooklyn Park,MN,55428-1006,Hennepin
,,,Home and Community Based Services - Community Residential Setting,Active,,Minneapolis,MN,55428-1843,Hennepin
,,,Home and Community Based Services - Community Residential Setting,Active,,Minneapolis,MN,55428-4408,Hennepin
,,,Home and Community Based Services,Active,,Minneapolis,MN,55428-5616,Hennepin
,,,Home and Community Based Services - Community Residential Setting,Active,,Brooklyn Park,MN,55428-2776,Hennepin
,,,Family Child Care,Active,,Crystal,MN,55428-5122,Hennepin
,,,Adult Foster Care,Active,,Crystal,MN,55428-3926,Hennepin
,,,Family Child Care,Active,,Crystal,MN,55428-3854,Hennepin
,,,Children's Residential Facilities,Active,,Brooklyn Park,MN,55428,Hennepin
,,,Child Care Center,Active,,Crystal,MN,55428-3577,Hennepin
,,,Substance Use Disorder Treatment,Active,,New Hope,MN,55428-0000,Hennepin
,,,Home and Community Based Services - Community Residential Setting,Active,,New Hope,MN,55428-4757,Hennepin
,,,Home and Community Based Services - Community Residential Setting,Active,,New Hope,MN,55428-4849,Hennepin
,,,Child Care Center,Active,,New Hope,MN,55428-4742,Hennepin
,,,Family Child Care,Active,,Brooklyn Park,MN,55428-1665,Hennepin
,,,Home and Community Based Services,Closed as of 10/29/2025,,Brooklyn Park,MN,55428-1692,Hennepin
,,,Adult Foster Care,Active,,New Hope,MN,55428-2815,Hennepin
,,,Home and Community Based Services - Community Residential Setting,Active,,New Hope,MN,55428-4443,Hennepin
,,,Home and Community Based Services - Community Residential Setting,Active,,New Hope,MN,55428-4413,Hennepin
,,,Home and Community Based Services - Community Residential Setting,Active,,Brooklyn Park,MN,55428-1754,Hennepin
,,,Home and Community Based Services - Community Residential Setting,Active,,New Hope,MN,55428-4110,Hennepin
,,,Home and Community Based Services - Community Residential Setting,Active,,New Hope,MN,55428-4754,Hennepin
,,,Home and Community Based Services - Community Residential Setting,Active,,Crystal,MN,55428-4617,Hennepin
,,,Child Foster Residence Setting,Active,,New Hope,MN,55428-3712,Hennepin
,,,Home and Community Based Services - Community Residential Setting,Active,,Brooklyn Park,MN,55428-2734,Hennepin
,,,Home and Community Based Services - Community Residential Setting,Active,,Crystal,MN,55428-5123,Hennepin
,,,Home and Community Based Services - Community Residential Setting,Active,,Crystal,MN,55428-5116,Hennepin
,,,Home and Community Based Services - Community Residential Setting,Active,,Minneapolis,MN,55428-1454,Hennepin
,,,Home and Community Based Services,Active,,Minneapolis,MN,55428-1500,Hennepin
,,,Home and Community Based Services - Community Residential Setting,Active,,Brooklyn Park,MN,55428-2227,Hennepin
,,,Family Child Care,Active,,Crystal,MN,55428-5021,Hennepin
,,,Home and Community Based Services,Conditional as of 06/03/2024,,Minneapolis,MN,55428-3095,Hennepin
,,,Child Care Center,Active,,Minneapolis,MN,55428-5129,Hennepin
,,,Home and Community Based Services - Community Residential Setting,Active,,Minneapolis,MN,55428-3536,Hennepin
,,,Home and Community Based Services,Active,,Crystal,MN,55428-4528,Hennepin
,,,Home and Community Based Services,Active,,Minneapolis,MN,55428-5615,Hennepin
,,,Family Child Care,Active,,New Hope,MN,55428-4502,Hennepin
,,,Family Child Care,Active,,Brooklyn Park,MN,55428-1763,Hennepin
,,,Family Child Care,Active,,Crystal,MN,55428-3920,Hennepin
,,,Child Caring-Placing Agency,Active,,Crystal,MN,55428-3826,Hennepin
,,,Child Care Center,Active,,Minneapolis,MN,55428,Hennepin
,,,Home and Community Based Services - Community Residential Setting,Active,,New Hope,MN,55428-4844,Hennepin
,,,Certified Child Care Center,Active,,Crystal,MN,55428-4625,Hennepin
,,,Certified Child Care Center,Active,,Minneapolis,MN,55428-2724,Hennepin
,,,Child Foster Residence Setting,Active,,Brooklyn Park,MN,55428-1635,Hennepin
,,,Family Child Care,Active,,New Hope,MN,55428-3818,Hennepin
,,,Child Care Center,Active,,Brooklyn Park,MN,55428-1227,Hennepin
,,,Family Child Care,Active,,New Hope,MN,55428-5041,Hennepin
,,,Home and Community Based Services,Active,,Brooklyn Park,MN,55428-1540,Hennepin
,,,Home and Community Based Services - Day Services Facility,Active,,Brooklyn Park,MN,55428-0000,Hennepin
,,,Substance Use Disorder Treatment,Active,,Brooklyn Park,MN,55428-1024,Hennepin
,,,Home and Community Based Services - Residential Services Facility,Active,,Brooklyn Park,MN,55428-2422,Hennepin
,,,Home and Community Based Services - Community Residential Setting,Active,,New Hope,MN,55428-2765,Hennepin
,,,Home and Community Based Services - Community Residential Setting,Active,,Crystal,MN,55428-0000,Hennepin
,,,Home and Community Based Services,Active,,Brooklyn Park,MN,55428-1930,Hennepin
,,,Home and Community Based Services - Residential Services Facility,Active,,New Hope,MN,55428,Hennepin
,,,Home and Community Based Services,Active,,Brooklyn Park,MN,55428-1036,Hennepin
,,,Home and Community Based Services,Active,,Brooklyn Park,MN,55428-1035,Hennepin
,,,Family Child Care,Active,,Crystal,MN,55428,Hennepin
,,,Home and Community Based Services - Community Residential Setting,Active,,Brooklyn Park,MN,55428-1842,Hennepin
,,,Home and Community Based Services - Community Residential Setting,Active,,Brooklyn Park,MN,55428-2162,Hennepin
,,,Home and Community Based Services,Active,,Brooklyn Park,MN,55428-1403,Hennepin
,,,Child Care Center,Active,,New Hope,MN,55428-3615,Hennepin
,,,Family Child Care,Active,,Crystal,MN,55428-3438,Hennepin
,,,Home and Community Based Services,Active,,Brooklyn Park,MN,55428-1020,Hennepin
,,,Home and Community Based Services - Community Residential Setting,Active,,Brooklyn Park,MN,55428-2212,Hennepin
,,,Home and Community Based Services,Active,,New Hope,MN,55428-4127,Hennepin
,,,Family Child Care,Active,,New Hope,MN,55428-3706,Hennepin
,,,Home and Community Based Services - Community Residential Setting,Active,,Brooklyn Park,MN,55428-2513,Hennepin
,,,Home and Community Based Services - Community Residential Setting,Active,,New Hope,MN,55428-3045,Hennepin
,,,Home and Community Based Services - Community Residential Setting,Active,,Minneapolis,MN,55428-3028,Hennepin
,,,Family Child Care,Active,,New Hope,MN,55428-2812,Hennepin
,,,Family Child Care,Active,,Brooklyn Park,MN,55428-2753,Hennepin
,,,Home and Community Based Services - Community Residential Setting,Active,,Minneapolis,MN,55428-3815,Hennepin
,,,Child Care Center,Active,,Brooklyn Park,MN,55428-1623,Hennepin
,,,Family Child Care,Active,,Brooklyn Park,MN,55428-1826,Hennepin
,,,Family Child Care,Closed as of 07/01/2025,,New Hope,MN,55428-4105,Hennepin
,,,Family Child Care,Active,,Brooklyn Park,MN,55428-1439,Hennepin
,,,Children's Residential Facilities,Active,,Crystal,MN,55428-3948,Hennepin
,,,Home and Community Based Services,Active,,Crystal,MN,55428-3263,Hennepin
,,,Family Child Care,Active,,New Hope,MN,55428-4827,Hennepin
,,,Adult Day Care Services,Active,,Brooklyn Park,MN,55428-1228,Hennepin
,,,Home and Community Based Services,Active,,Minneapolis,MN,55428-4137,Hennepin
,,,Home and Community Based Services - Community Residential Setting,Active,,New Hope,MN,55428-4516,Hennepin
,,,Family Child Care,Active,,Brooklyn Park,MN,55428-2521,Hennepin
,,,Home and Community Based Services - Community Residential Setting,Active,,Minneapolis,MN,55428-4518,Hennepin
,,,Home and Community Based Services,Active,,Brooklyn Center,MN,55429-3072,Hennepin
,,,Home and Community Based Services - Community Residential Setting,Active,,Brooklyn Center,MN,55429-2664,Hennepin
,,,Home and Community Based Services,Active,,Brooklyn Center,MN,55429-3000,Hennepin
,,,Home and Community Based Services,Active,,Brooklyn Center,MN,55429-3068,Hennepin
,,,Home and Community Based Services - Residential Services Facility,Active,,Brooklyn Park,MN,55429,Hennepin
,,,Home and Community Based Services,Closed as of 10/02/2025,,Brooklyn Center,MN,55429-2533,Hennepin
,,,Home and Community Based Services,Active,,Brooklyn Park,MN,55429-1279,Hennepin
,,,Home and Community Based Services,Active,,Brooklyn Center,MN,55429-1370,Hennepin
,,,Home and Community Based Services - Community Residential Setting,Active,,Brooklyn Center,MN,55429-2210,Hennepin
,,,Home and Community Based Services - Community Residential Setting,Active,,Brooklyn Center,MN,55429-2009,Hennepin
,,,Home and Community Based Services - Community Residential Setting,Active,,Brooklyn Center,MN,55429-2027,Hennepin
,,,Home and Community Based Services - Community Residential Setting,Active,,Brooklyn Park,MN,55429-1521,Hennepin
,,,Home and Community Based Services - Community Residential Setting,Active,,Brooklyn Center,MN,55429-3046,Hennepin
,,,Home and Community Based Services,Active,,Minneapolis,MN,55429-2518,Hennepin
,,,Home and Community Based Services,Active,,Minneapolis,MN,55429-3171,Hennepin
,,,Home and Community Based Services - Community Residential Setting,Active,,Brooklyn Park,MN,55429-0000,Hennepin
,,,Child Care Center,Active,,Brooklyn Center,MN,55429-2174,Hennepin
,,,Family Child Care,Active,,Crystal,MN,55429-2727,Hennepin
,,,Home and Community Based Services,Active,,Brooklyn Center,MN,55429-3064,Hennepin
,,,Home and Community Based Services - Community Residential Setting,Active,,Crystal,MN,55429-3737,Hennepin
,,,Home and Community Based Services,Active,,Minneapolis,MN,55429-2532,Hennepin
,,,Child Care Center,Active,,Brooklyn Center,MN,55429-3404,Hennepin
,,,Child Foster Residence Setting,Active,,Brooklyn Park,MN,55429-1070,Hennepin
,,,Home and Community Based Services - Community Residential Setting,Active,,Brooklyn Center,MN,55429-2663,Hennepin
,,,Home and Community Based Services,Active,,Minneapolis,MN,55429-2664,Hennepin
,,,Home and Community Based Services,Active,,Brooklyn Center,MN,55429-3066,Hennepin
,,,Home and Community Based Services - Community Residential Setting,Active,,Brooklyn Center,MN,55429-0000,Hennepin
,,,Home and Community Based Services,Active,,Brooklyn Center,MN,55429-1611,Hennepin
,,,Home and Community Based Services,Active,,Brooklyn Center,MN,55429-2532,Hennepin
,,,Home and Community Based Services - Community Residential Setting,Active,,Brooklyn Center,MN,55429-2619,Hennepin
,,,Home and Community Based Services,Active,,Brooklyn Center,MN,55429-1274,Hennepin
,,,Home and Community Based Services - Community Residential Setting,Active,,Brooklyn Center,MN,55429-1450,Hennepin
,,,Home and Community Based Services - Community Residential Setting,Active,,Crystal,MN,55429-2847,Hennepin
,,,Home and Community Based Services - Community Residential Setting,Active,,Brooklyn Center,MN,55429-2018,Hennepin
,,,Home and Community Based Services - Community Residential Setting,Active,,Brooklyn Center,MN,55429-4110,Hennepin
,,,Home and Community Based Services - Community Residential Setting,Active,,Crystal,MN,55429-3268,Hennepin
,,,Home and Community Based Services - Community Residential Setting,Active,,Brooklyn Center,MN,55429-1701,Hennepin
,,,Home and Community Based Services,Closed as of 09/24/2025,,Minneapolis,MN,55429-1062,Hennepin
,,,Home and Community Based Services,Active,,Brooklyn Center,MN,55429-2123,Hennepin
,,,Certified Child Care Center,Active,,Brooklyn Park,MN,55429-2095,Hennepin
,,,Home and Community Based Services,Active,,Brooklyn Center,MN,55429-3077,Hennepin
,,,Home and Community Based Services,Active,,Brooklyn Center,MN,55429-2032,Hennepin
,,,Home and Community Based Services - Community Residential Setting,Active,,Brooklyn Center,MN,55429-2206,Hennepin
,,,Home and Community Based Services - Community Residential Setting,Active,,Brooklyn Center,MN,55429-2402,Hennepin
,,,Home and Community Based Services,Active,,Brooklyn Center,MN,55429-3073,Hennepin
,,,Home and Community Based Services,Closed as of 09/22/2025,,Brooklyn Park,MN,55429-1522,Hennepin
,,,Home and Community Based Services,Active,,Brooklyn Center,MN,55429-1725,Hennepin
,,,Home and Community Based Services - Community Residential Setting,Active,,Crystal,MN,55429-0000,Hennepin
,,,Home and Community Based Services,Active,,Brooklyn Center,MN,55429-3059,Hennepin
,,,Home and Community Based Services,Active,,Brooklyn Center,MN,55429-3089,Hennepin
,,,Family Child Care,Active,,Crystal,MN,55429-3152,Hennepin
,,,Home and Community Based Services,Active,,Brooklyn Center,MN,55429-3065,Hennepin
,,,Home and Community Based Services,Active,,Brooklyn Center,MN,55429-2144,Hennepin
,,,Home and Community Based Services,Active,,Brooklyn Center,MN,55429-1720,Hennepin
,,,Home and Community Based Services - Community Residential Setting,Active,,Brooklyn Center,MN,55429-1313,Hennepin
,,,Home and Community Based Services - Community Residential Setting,Active,,Brooklyn Center,MN,55429-2173,Hennepin
,,,Home and Community Based Services,Active,,Crystal,MN,55429-2814,Hennepin
,,,Family Child Care,Active,,Brooklyn Park,MN,55429-1033,Hennepin
,,,Child Care Center,Active,,Crystal,MN,55429-2702,Hennepin
,,,Family Child Care,Active,,Brooklyn Center,MN,55429-2057,Hennepin
,,,Home and Community Based Services,Active,,Brooklyn Center,MN,55429-2626,Hennepin
,,,Home and Community Based Services - Community Residential Setting,Active,,Brooklyn Center,MN,55429-3029,Hennepin
,,,Home and Community Based Services - Community Residential Setting,Active,,Brooklyn Center,MN,55429-2502,Hennepin
,,,Home and Community Based Services - Community Residential Setting,Active,,Brooklyn Center,MN,55429-3310,Hennepin
,,,Family Child Care,Active,,Brooklyn Park,MN,55429-1515,Hennepin
,,,Home and Community Based Services - Community Residential Setting,Active,,Brooklyn Center,MN,55429-1359,Hennepin
,,,Home and Community Based Services - Residential Services Facility,Active,,Minneapolis,MN,55429-3658,Hennepin
,,,Family Child Care,Active,,Brooklyn Center,MN,55429-1334,Hennepin
,,,Home and Community Based Services - Community Residential Setting,Active,,Brooklyn Center,MN,55429-3005,Hennepin
,,,Intensive Residential Treatment Services and Residential Crisis Stabilization,Active,,Brooklyn Center,MN,55429-1739,Hennepin
,,,Substance Use Disorder Treatment,Active,,Crystal,MN,55429-3184,Hennepin
,,,Home and Community Based Services - Community Residential Setting,Active,,Brooklyn Center,MN,55429-2434,Hennepin
,,,Home and Community Based Services - Community Residential Setting,Active,,Minneapolis,MN,55429-1047,Hennepin
,,,Family Child Care,Active,,Brooklyn Center,MN,55429-1341,Hennepin
,,,Child Care Center,Pending Reopening as of 12/24/2025,,Crystal,MN,55429-3504,Hennepin
,,,Family Child Care,Active,,Crystal,MN,55429-3659,Hennepin
,,,Intensive Residential Treatment Services and Residential Crisis Stabilization,Active,,Crystal,MN,55429-3501,Hennepin
,,,Home and Community Based Services,Active,,Brooklyn Center,MN,55429-3075,Hennepin
,,,Home and Community Based Services - Community Residential Setting,Active,,Brooklyn Center,MN,55429-1663,Hennepin
,,,Home and Community Based Services,Active,,Minneapolis,MN,55429-1176,Hennepin
,,,Home and Community Based Services - Community Residential Setting,Active,,Brooklyn Center,MN,55429-5429,Hennepin
,,,Family Child Care,Active,,Brooklyn Center,MN,55429,Hennepin
,,,Family Child Care,Active,,Brooklyn Center,MN,55429-1647,Hennepin
,,,Family Child Care,Active,,Brooklyn Center,MN,55429-2025,Hennepin
,,,Home and Community Based Services,Active,,Minneapolis,MN,55429-1370,Hennepin
,,,Home and Community Based Services,Active,,Brooklyn Park,MN,55429-1949,Hennepin
,,,Child Care Center,Active,,Brooklyn Center,MN,55429-2483,Hennepin
,,,Home and Community Based Services - Community Residential Setting,Active,,Brooklyn Center,MN,55429-1258,Hennepin
,,,Home and Community Based Services - Community Residential Setting,Active,,Crystal,MN,55429-3254,Hennepin
,,,Family Child Care,Active,,Brooklyn Center,MN,55429-2049,Hennepin
,,,Substance Use Disorder Treatment,Active,,Brooklyn Center,MN,55430-2562,Hennepin
,,,Home and Community Based Services,Active,,Brooklyn Center,MN,55430-2514,Hennepin
,,,Home and Community Based Services - Community Residential Setting,Active,,Brooklyn Center,MN,55430-1318,Hennepin
,,,Home and Community Based Services,Active,,Brooklyn Center,MN,55430-2386,Hennepin
,,,Home and Community Based Services,Active,,Brooklyn Center,MN,55430-1751,Hennepin
,,,Home and Community Based Services,Active,,Minneapolis,MN,55430-2491,Hennepin
,,,Home and Community Based Services - Community Residential Setting,Active,,Brooklyn Center,MN,55430-2001,Hennepin
,,,Home and Community Based Services - Community Residential Setting,Active,,Brooklyn Center,MN,55430-1332,Hennepin
,,,Home and Community Based Services,Active,,Brooklyn Center,MN,55430-2342,Hennepin
,,,Home and Community Based Services,Active,,Brooklyn Center,MN,55430-4521,Hennepin
,,,Home and Community Based Services,Active,,Brooklyn Center,MN,55430-2467,Hennepin
,,,Child Care Center,Active,,Minneapolis,MN,55430,Hennepin
,,,Family Child Care,Active,,Minneapolis,MN,55430-3356,Hennepin
,,,Family Child Care,Closed as of 12/04/2025,,Minneapolis,MN,55430-3450,Hennepin
,,,Child Care Center,Active,,Brooklyn Center,MN,55430-2314,Hennepin
,,,Home and Community Based Services,Active,,Brooklyn Center,MN,55430-2356,Hennepin
,,,Family Child Care,Active,,Minneapolis,MN,55430-3558,Hennepin
,,,Home and Community Based Services,Active,,Brooklyn Center,MN,55430-2523,Hennepin
,,,Home and Community Based Services,Active,,Brooklyn Center,MN,55430-2370,Hennepin
,,,Child Care Center,Active,,Brooklyn Center,MN,55430-2322,Hennepin
,,,Certified Child Care Center,Active,,Brooklyn Center,MN,55430-2614,Hennepin
,,,Home and Community Based Services,Active,,Brooklyn Center,MN,55430-2486,Hennepin
,,,Home and Community Based Services - Community Residential Setting,Active,,Brooklyn Center,MN,55430-0000,Hennepin
,,,Home and Community Based Services,Active,,Minneapolis,MN,55430-3216,Hennepin
,,,Home and Community Based Services - Community Residential Setting,Active,,Minneapolis,MN,55430-0000,Hennepin
,,,Home and Community Based Services,Active,,Brooklyn Center,MN,55430-4535,Hennepin
,,,Family Child Care,Active,,Brooklyn Center,MN,55430-2738,Hennepin
,,,Home and Community Based Services,Active,,Brooklyn Center,MN,55430-2485,Hennepin
,,,Home and Community Based Services,Active,,Brooklyn Center,MN,55430-2943,Hennepin
,,,Home and Community Based Services - Community Residential Setting,Active,,Brooklyn Center,MN,55430-1132,Hennepin
,,,Home and Community Based Services - Community Residential Setting,Active,,Brooklyn Center,MN,55430-2307,Hennepin
,,,Home and Community Based Services - Community Residential Setting,Active,,Minneapolis,MN,55430-1148,Hennepin
,,,Home and Community Based Services,Active,,Minneapolis,MN,55430-2686,Hennepin
,,,Home and Community Based Services - Community Residential Setting,Active,,Brooklyn Center,MN,55430-1146,Hennepin
,,,Home and Community Based Services - Community Residential Setting,Active,,Brooklyn Center,MN,55430-1141,Hennepin
,,,Home and Community Based Services - Community Residential Setting,Active,,Brooklyn Center,MN,55430-3028,Hennepin
,,,Home and Community Based Services - Community Residential Setting,Active,,Brooklyn Center,MN,55430-1137,Hennepin
,,,Home and Community Based Services - Community Residential Setting,Active,,Brooklyn Center,MN,55430-1022,Hennepin
,,,Home and Community Based Services - Community Residential Setting,Active,,Brooklyn Center,MN,55430-2028,Hennepin
,,,Home and Community Based Services,Closed as of 11/17/2025,,Brooklyn Center,MN,55430-3111,Hennepin
,,,Family Child Care,Active,,Brooklyn Center,MN,55430,Hennepin
,,,Home and Community Based Services,Active,,Minneapolis,MN,55430-2346,Hennepin
,,,Family Child Care,Active,,Minneapolis,MN,55430-3534,Hennepin
,,,Home and Community Based Services,Active,,Minneapolis,MN,55430-2207,Hennepin
,,,Home and Community Based Services - Community Residential Setting,Active,,Brooklyn Center,MN,55430-2721,Hennepin
,,,Adult Day Care Services,Active,,Brooklyn Center,MN,55430-2957,Hennepin
,,,Child Care Center,Active,,Brooklyn Center,MN,55430-2506,Hennepin
,,,Substance Use Disorder Treatment,Active,,Brooklyn Center,MN,55430-2492,Hennepin
,,,Home and Community Based Services - Community Residential Setting,Active,,Minneapolis,MN,55430-2941,Hennepin
,,,Home and Community Based Services - Community Residential Setting,Active,,Brooklyn Center,MN,55430-1836,Hennepin
,,,Home and Community Based Services - Residential Services Facility,Active,,Brooklyn Center,MN,55430-3201,Hennepin
,,,Home and Community Based Services - Residential Services Facility,Active,,Minneapolis,MN,55430-1618,Hennepin
,,,Home and Community Based Services - Community Residential Setting,Active,,Minneapolis,MN,55430-3363,Hennepin
,,,Family Child Care,Active,,Minneapolis,MN,55430-3321,Hennepin
,,,Home and Community Based Services - Community Residential Setting,Active,,Brooklyn Center,MN,55430-1148,Hennepin
,,,Home and Community Based Services - Community Residential Setting,Active,,Brooklyn Center,MN,55430-1001,Hennepin
,,,Family Child Care,Active,,Brooklyn Center,MN,55430-1824,Hennepin
,,,Home and Community Based Services,Active,,Minneapolis,MN,55430-2485,Hennepin
,,,Home and Community Based Services,Active,,Brooklyn Center,MN,55430-1402,Hennepin
,,,Child Care Center,Active,,Brooklyn Central,MN,55430,Hennepin
,,,Family Child Care,Active,,Brooklyn Center,MN,55430-1808,Hennepin
,,,Home and Community Based Services - Community Residential Setting,Active,,Brooklyn Center,MN,55430-2631,Hennepin
,,,Home and Community Based Services,Active,,Brooklyn Center,MN,55430-2384,Hennepin
,,,Home and Community Based Services - Community Residential Setting,Active,,Brooklyn Center,MN,55430-2311,Hennepin
,,,Home and Community Based Services - Community Residential Setting,Active,,Brooklyn Center,MN,55430-1839,Hennepin
,,,Family Child Care,Active,,Brooklyn Center,MN,55430-1106,Hennepin
,,,Home and Community Based Services - Community Residential Setting,Active,,Brooklyn Center,MN,55430-3066,Hennepin
,,,Home and Community Based Services - Community Residential Setting,Active,,Brooklyn Center,MN,55430-2303,Hennepin
,,,Home and Community Based Services - Day Services Facility,Active,,Brooklyn Center,MN,55430-2331,Hennepin
,,,Home and Community Based Services,Active,,Brooklyn Center,MN,55430-2352,Hennepin
,,,Home and Community Based Services - Community Residential Setting,Active,,Brooklyn Center,MN,55430-1060,Hennepin
,,,Home and Community Based Services,Active,,Minneapolis,MN,55430-3427,Hennepin
,,,Home and Community Based Services,Active,,Brooklyn Center,MN,55430-2181,Hennepin
,,,Home and Community Based Services,Active,,Minneapolis,MN,55430-6604,Hennepin
,,,Home and Community Based Services,Active,,Brooklyn Center,MN,55430-2333,Hennepin
,,,Home and Community Based Services - Community Residential Setting,Active,,Brooklyn Center,MN,55430-3164,Hennepin
,,,Home and Community Based Services,Active,,Brooklyn Center,MN,55430-2155,Hennepin
,,,Family Child Care,Active,,Bloomington,MN,55431-2017,Hennepin
,,,Home and Community Based Services,Active,,Bloomington,MN,55431-2854,Hennepin
,,,Home and Community Based Services,Active,,Bloomington,MN,55431-4420,Hennepin
,,,Home and Community Based Services,Active,,Bloomington,MN,55431-1220,Hennepin
,,,Home and Community Based Services - Community Residential Setting,Active,,Bloomington,MN,55431-3529,Hennepin
,,,Family Child Care,Active,,Bloomington,MN,55431-1007,Hennepin
,,,Family Child Care,Active,,Bloomington,MN,55431-3725,Hennepin
,,,Home and Community Based Services,Active,,Bloomington,MN,55431-2135,Hennepin
,,,Home and Community Based Services - Community Residential Setting,Active,,Bloomington,MN,55431-3214,Hennepin
,,,Home and Community Based Services - Community Residential Setting,Active,,Bloomington,MN,55431-3851,Hennepin
,,,Home and Community Based Services - Community Residential Setting,Active,,Bloomington,MN,55431-3125,Hennepin
,,,Adult Day Care Services,Active,,Bloomington,MN,55431-3856,Hennepin
,,,Home and Community Based Services - Community Residential Setting,Active,,Bloomington,MN,55431-3250,Hennepin
,,,Home and Community Based Services - Community Residential Setting,Active,,Bloomington,MN,55431-1756,Hennepin
,,,Home and Community Based Services - Community Residential Setting,Active,,Bloomington,MN,55431-3131,Hennepin
,,,Home and Community Based Services - Community Residential Setting,Active,,Bloomington,MN,55431-1742,Hennepin
,,,Home and Community Based Services - Community Residential Setting,Active,,Bloomington,MN,55431-3334,Hennepin
,,,Home and Community Based Services - Community Residential Setting,Active,,Bloomington,MN,55431-7135,Hennepin
,,,Certified Child Care Center,Active,,Minneapolis,MN,55431,Hennepin
,,,Home and Community Based Services,Active,,Bloomington,MN,55431-2407,Hennepin
,,,Home and Community Based Services - Community Residential Setting,Active,,Bloomington,MN,55431-0000,Hennepin
,,,Family Child Care,Active,,Bloomington,MN,55431-2212,Hennepin
,,,Family Child Care,Active,,Bloomington,MN,55431-3960,Hennepin
,,,Home and Community Based Services,Active,,Bloomington,MN,55431-1351,Hennepin
,,,Home and Community Based Services,Active,,Bloomington,MN,55431-2518,Hennepin
,,,Child Care Center,Active,,Bloomington,MN,55431-2120,Hennepin
,,,Home and Community Based Services - Community Residential Setting,Active,,Bloomington,MN,55431-2906,Hennepin
,,,Home and Community Based Services,Active,,Bloomington,MN,55431-2638,Hennepin
,,,Home and Community Based Services - Community Residential Setting,Active,,Minneapolis,MN,55431-2847,Hennepin
,,,Certified Child Care Center,Active,,Bloomington,MN,55431-2471,Hennepin
,,,Certified Child Care Center,Active,,Bloomington,MN,55431-3163,Hennepin
,,,Certified Child Care Center,Pending Reopening as of 08/23/2022,,Bloomington,MN,55431-1631,Hennepin
,,,Certified Child Care Center,Active,,Bloomington,MN,55431-3605,Hennepin
,,,Family Child Care,Active,,Bloomington,MN,55431-2921,Hennepin
,,,Home and Community Based Services - Community Residential Setting,Active,,Bloomington,MN,55431-3618,Hennepin
,,,Home and Community Based Services - Community Residential Setting,Active,,Bloomington,MN,55431-3247,Hennepin
,,,Home and Community Based Services - Community Residential Setting,Active,,Bloomington,MN,55431-2117,Hennepin
,,,Home and Community Based Services - Community Residential Setting,Active,,Bloomington,MN,55431-3937,Hennepin
,,,Family Child Care,Active,,Bloomington,MN,55431-1064,Hennepin
,,,Child Care Center,Active,,Bloomington,MN,55431-1863,Hennepin
,,,Child Care Center,Active,,Bloomington,MN,55431-3025,Hennepin
,,,Home and Community Based Services,Active,,Bloomington,MN,55431-2068,Hennepin
,,,Home and Community Based Services,Active,,Bloomington,MN,55431-1325,Hennepin
,,,Home and Community Based Services,Active,,Minneapolis,MN,55431-1760,Hennepin
,,,Family Child Care,Active,,Bloomington,MN,55431-2223,Hennepin
,,,Family Child Care,Active,,Bloomington,MN,55431-3112,Hennepin
,,,Child Foster Residence Setting,Active,,Bloomington,MN,55431,Hennepin
,,,Home and Community Based Services - Community Residential Setting,Active,,Minneapolis,MN,55431-4140,Hennepin
,,,Home and Community Based Services,Active,,Bloomington,MN,55431-4429,Hennepin
,,,Home and Community Based Services,Active,,Bloomington,MN,55431-3157,Hennepin
,,,Child Care Center,Active,,Bloomington,MN,55431-1908,Hennepin
,,,Home and Community Based Services - Community Residential Setting,Active,,Minneapolis,MN,55431-1619,Hennepin
,,,Home and Community Based Services - Community Residential Setting,Active,,Bloomington,MN,55431-2053,Hennepin
,,,Home and Community Based Services - Community Residential Setting,Active,,Bloomington,MN,55431-3459,Hennepin
,,,Family Child Care,Active,,Bloomington,MN,55431-3443,Hennepin
,,,Family Child Care,Active,,Bloomington,MN,55431-2306,Hennepin
,,,Child Care Center,Active,,Minneapolis,MN,55431-1519,Hennepin
,,,Family Child Care,Active,,Bloomington,MN,55431-4015,Hennepin
,,,Home and Community Based Services - Community Residential Setting,Active,,Bloomington,MN,55431-4154,Hennepin
,,,Family Child Care,Active,,Bloomington,MN,55431-2752,Hennepin
,,,Home and Community Based Services - Community Residential Setting,Active,,Bloomington,MN,55431-2207,Hennepin
,,,Family Child Care,Active,,Fridley,MN,55432-4655,Anoka
,,,Home and Community Based Services,Active,,Fridley,MN,55432-3581,Anoka
,,,Home and Community Based Services,Active,,Fridley,MN,55432-3110,Anoka
,,,Substance Use Disorder Treatment,Active,,Fridley,MN,55432-1860,Anoka
,,,Home and Community Based Services,Active,,Fridley,MN,55432-5134,Anoka
,,,Child Care Center,Active,,Fridley,MN,55432-5815,Anoka
,,,Substance Use Disorder Treatment,Active,,Minneapolis,MN,55432-2718,Anoka
,,,Substance Use Disorder Treatment,Active,,Fridley,MN,55432-2718,Anoka
,,,Home and Community Based Services,Active,,Fridley,MN,55432-3542,Anoka
,,,Family Child Care,Active,,Fridley,MN,55432-3210,Anoka
,,,Adult Foster Care,Active,,Fridley,MN,55432-3056,Anoka
,,,Home and Community Based Services - Community Residential Setting,Active,,Spring Lake Park,MN,55432-1963,Anoka
,,,Home and Community Based Services,Active,,Fridley,MN,55432-2838,Anoka
,,,Family Child Care,Active,,Fridley,MN,55432-3243,Anoka
,,,Home and Community Based Services,Active,,Fridley,MN,55432-5558,Anoka
,,,Home and Community Based Services,Active,,Fridley,MN,55432-5171,Anoka
,,,Home and Community Based Services,Active,,Fridley,MN,55432-4112,Anoka
,,,Child Care Center,Active,,Fridley,MN,55432-4318,Anoka
,,,Home and Community Based Services - Community Residential Setting,Active,,Fridley,MN,55432-3218,Anoka
,,,Home and Community Based Services,Denied as of 07/29/2025,,Spring Lake Park,MN,55432-2040,Anoka
,,,Certified Child Care Center,Active,,Spring Lake Park,MN,55432-2111,Anoka
,,,Family Child Care,Active,,Spring Lake Park,MN,55432-1210,Anoka
,,,Child Care Center,Active,,Fridley,MN,55432,Anoka
,,,Home and Community Based Services - Community Residential Setting,Active,,Fridley,MN,55432-3602,Anoka
,,,Substance Use Disorder Treatment,Revoked: Subject to Appeal as of 11/07/2025,,Spring Lake Park,MN,55432-2832,Anoka
,,,Certified Child Care Center,Active,,Fridley,MN,55432-5534,Anoka
,,,Home and Community Based Services,Active,,Fridley,MN,55432-4351,Anoka
,,,Home and Community Based Services,Active,,Fridley,MN,55432-5176,Anoka
,,,Home and Community Based Services,Active,,Fridley,MN,55432-3142,Anoka
,,,Home and Community Based Services - Community Residential Setting,Active,,Fridley,MN,55432-3641,Anoka
,,,Home and Community Based Services - Community Residential Setting,Active,,Fridley,MN,55432-5525,Anoka
,,,Home and Community Based Services - Community Residential Setting,Active,,Fridley,MN,55432-5018,Anoka
,,,Certified Child Care Center,Active,,Fridley,MN,55432-5764,Anoka
,,,Certified Child Care Center,Active,,Spring Lake Park,MN,55432,Anoka
,,,Certified Child Care Center,Active,,Fridley,MN,55432-2833,Anoka
,,,Home and Community Based Services - Community Residential Setting,Active,,Fridley,MN,55432-5543,Anoka
,,,Home and Community Based Services,Active,,Minneapolis,MN,55432,Hennepin
,,,Home and Community Based Services,Active,,Minneapolis,MN,55432-3056,Anoka
,,,Family Child Care,Active,,Fridley,MN,55432-4324,Anoka
,,,Home and Community Based Services,Active,,Fridley,MN,55432-5177,Anoka
,,,Family Child Care,Active,,Fridley,MN,55432-5829,Anoka
,,,Family Child Care,Active,,Fridley,MN,55432-3615,Anoka
,,,Home and Community Based Services - Community Residential Setting,Active,,Fridley,MN,55432-1716,Anoka
,,,Home and Community Based Services - Community Residential Setting,Active,,Fridley,MN,55432-5561,Anoka
,,,Home and Community Based Services - Community Residential Setting,Active,,Spring Lake Park,MN,55432-1951,Anoka
,,,Family Child Care,Closed as of 08/30/2025,,Fridley,MN,55432-3639,Anoka
,,,Substance Use Disorder Treatment,Active,,Fridley,MN,55432-0000,Anoka
,,,Home and Community Based Services,Active,,Spring Lake Park,MN,55432-1141,Anoka
,,,Home and Community Based Services - Community Residential Setting,Active,,Fridley,MN,55432-3264,Anoka
,,,Family Child Care,Active,,Spring Lake Park,MN,55432-2166,Anoka
,,,Home and Community Based Services,Active,,Fridley,MN,55432-5136,Anoka
,,,Family Child Care,Active,,Fridley,MN,55432-5627,Anoka
,,,Family Child Care,Active,,Spring Lake Park,MN,55432-1810,Anoka
,,,Home and Community Based Services,Active,,Fridley,MN,55432-5531,Anoka
,,,Family Child Care,Active,,Fridley,MN,55432-2291,Anoka
,,,Home and Community Based Services,Active,,Fridley,MN,55432-3151,Anoka
,,,Home and Community Based Services - Day Services Facility,Active,,Fridley,MN,55432-2896,Anoka
,,,Adult Foster Care,Active,,Fridley,MN,55432-3051,Anoka
,,,Home and Community Based Services - Community Residential Setting,Active,,Fridley,MN,55432-4232,Anoka
,,,Child Care Center,Active,,Minneapolis,MN,55432-4422,Anoka
,,,Home and Community Based Services - Community Residential Setting,Active,,Spring Lake Park,MN,55432-1212,Anoka
,,,Home and Community Based Services - Community Residential Setting,Active,,Fridley,MN,55432-5533,Anoka
,,,Home and Community Based Services - Community Residential Setting,Active,,Fridley,MN,55432-5458,Anoka
,,,Home and Community Based Services - Community Residential Setting,Active,,Fridley,MN,55432-5544,Anoka
,,,Home and Community Based Services - Community Residential Setting,Active,,Fridley,MN,55432-1766,Anoka
,,,Home and Community Based Services - Community Residential Setting,Active,,Fridley,MN,55432-5625,Anoka
,,,Home and Community Based Services - Community Residential Setting,Active,,Fridley,MN,55432-5556,Anoka
,,,Home and Community Based Services - Community Residential Setting,Active,,Spring Lake Park,MN,55432-2809,Anoka
,,,Home and Community Based Services - Community Residential Setting,Active,,Fridley,MN,55432-5756,Anoka
,,,Home and Community Based Services - Community Residential Setting,Active,,Fridley,MN,55432-5713,Anoka
,,,Home and Community Based Services - Community Residential Setting,Active,,Fridley,MN,55432-1633,Anoka
,,,Home and Community Based Services - Community Residential Setting,Active,,Fridley,MN,55432-5844,Anoka
,,,Home and Community Based Services - Community Residential Setting,Active,,Fridley,MN,55432-4540,Anoka
,,,Home and Community Based Services - Community Residential Setting,Active,,Fridley,MN,55432-1642,Anoka
,,,Home and Community Based Services,Active,,Fridley,MN,55432-4303,Anoka
,,,Home and Community Based Services,Active,,Fridley,MN,55432-5962,Anoka
,,,Family Child Care,Active,,Spring Lake Park,MN,55432-1941,Anoka
,,,Home and Community Based Services,Active,,Fridley,MN,55432-5135,Anoka
,,,Family Child Care,Active,,Spring Lake Park,MN,55432-2188,Anoka
,,,Child Care Center,Active,,Fridley,MN,55432-2400,Anoka
,,,Intensive Residential Treatment Services and Residential Crisis Stabilization,Active,,Fridley,MN,55432-5128,Anoka
,,,Substance Use Disorder Treatment,Active,,Fridley,MN,55432-3258,Anoka
,,,Home and Community Based Services,Active,,Fridley,MN,55432-2517,Anoka
,,,Family Child Care,Active,,Fridley,MN,55432-1644,Anoka
,,,Home and Community Based Services,Active,,Fridley,MN,55432-5380,Anoka
,,,Home and Community Based Services,Active,,Fridley,MN,55432-3150,Anoka
,,,Family Child Care,Active,,Fridley,MN,55432-4610,Anoka
,,,Family Child Care,Active,,Spring Lake Park,MN,55432-1927,Anoka
,,,Home and Community Based Services - Community Residential Setting,Active,,Coon Rapids,MN,55433-3942,Anoka
,,,Adult Day Care Services,Revocation Order Issued/Under Appeal/May Operate as of 11/13/2025,,Coon Rapids,MN,55433-5852,Anoka
,,,Certified Child Care Center,Active,,Coon Rapids,MN,55433-5723,Anoka
,,,Certified Child Care Center,Active,,Coon Rapids,MN,55433-4221,Anoka
,,,Certified Child Care Center,Active,,Coon Rapids,MN,55433-4156,Anoka
,,,Certified Child Care Center,Active,,Coon Rapids,MN,55433-3800,Anoka
,,,Certified Child Care Center,Active,,Coon Rapids,MN,55433-1735,Anoka
,,,Home and Community Based Services - Community Residential Setting,Active,,Coon Rapids,MN,55433-6513,Anoka
,,,Home and Community Based Services,Active,,Coon Rapids,MN,55433-5002,Anoka
,,,Home and Community Based Services,Closed as of 12/10/2025,,Coon Rapids,MN,55433-2830,Anoka
,,,Child Care Center,Active,,Coon Rapids,MN,55433-2821,Anoka
,,,Child Care Center,Active,,Coon Rapids,MN,55433-4131,Anoka
,,,Child Care Center,Active,,Coon Rapids,MN,55433,Anoka
,,,Home and Community Based Services,Active,,Coon Rapids,MN,55433-5865,Anoka
,,,Child Care Center,Active,,Coon Rapids,MN,55433-5204,Anoka
,,,Family Child Care,Active,,Coon Rapids,MN,55433-3653,Anoka
,,,Family Child Care,Active,,Coon Rapids,MN,55433-2721,Anoka
,,,Home and Community Based Services - Community Residential Setting,Active,,Coon Rapids,MN,55433-0000,Anoka
,,,Child Care Center,Active,,Minneapolis,MN,55433-4142,Anoka
,,,Child Care Center,Active,,Coon Rapids,MN,55433-6041,Anoka
,,,Family Child Care,Active,,Coon Rapids,MN,55433-5632,Anoka
,,,Family Child Care,Active,,Coon Rapids,MN,55433-4546,Anoka
,,,Mental Health Clinic,Pending Reopening as of 12/01/2025,,Coon Rapids,MN,55433-2597,Anoka
,,,Home and Community Based Services - Community Residential Setting,Active,,Coon Rapids,MN,55433-6763,Anoka
,,,Adult Foster Care,Active,,Coon Rapids,MN,55433-2976,Anoka
,,,Child Care Center,Active,,Minneapolis,MN,55433-5537,Anoka
,,,Home and Community Based Services,Active,,Coon Rapids,MN,55433-4160,Anoka
,,,Family Child Care,Active,,Coon Rapids,MN,55433-4031,Anoka
,,,Family Child Care,Active,,Coon Rapids,MN,55433-3537,Anoka
,,,Home and Community Based Services - Community Residential Setting,Active,,Coon Rapids,MN,55433-4126,Anoka
,,,Home and Community Based Services - Community Residential Setting,Active,,Minneapolis,MN,55433-5610,Anoka
,,,Home and Community Based Services - Community Residential Setting,Active,,Coon Rapids,MN,55433-3865,Anoka
,,,Home and Community Based Services,Active,,Coon Rapids,MN,55433-4173,Anoka
,,,Family Child Care,Active,,Coon Rapids,MN,55433-1809,Anoka
,,,Family Child Care,Active,,Coon Rapids,MN,55433-1648,Anoka
,,,Home and Community Based Services - Community Residential Setting,Active,,Coon Rapids,MN,55433-3814,Anoka
,,,Home and Community Based Services - Community Residential Setting,Active,,Coon Rapids,MN,55433-4009,Anoka
,,,Home and Community Based Services - Community Residential Setting,Active,,Coon Rapids,MN,55433-4111,Anoka
,,,Home and Community Based Services - Community Residential Setting,Active,,Coon Rapids,MN,55433-3936,Anoka
,,,Home and Community Based Services - Community Residential Setting,Active,,Coon Rapids,MN,55433-3875,Anoka
,,,Home and Community Based Services - Community Residential Setting,Active,,Coon Rapids,MN,55433-4661,Anoka
,,,Home and Community Based Services - Community Residential Setting,Active,,Coon Rapids,MN,55433-5492,Anoka
,,,Home and Community Based Services - Community Residential Setting,Active,,Coon Rapids,MN,55433-5905,Anoka
,,,Home and Community Based Services,Active,,Coon Rapids,MN,55433-4799,Anoka
,,,Home and Community Based Services - Community Residential Setting,Active,,Coon Rapids,MN,55433-5407,Anoka
,,,Home and Community Based Services - Day Services Facility,Active,,Coon Rapids,MN,55433-5861,Anoka
,,,Home and Community Based Services,Active,,Coon Rapids,MN,55433-2997,Anoka
,,,Home and Community Based Services,Closed as of 09/19/2025,,Coon Rapids,MN,55433-4013,Anoka
,,,Family Child Care,Active,,Coon Rapids,MN,55433-2725,Anoka
,,,Family Child Care,Active,,Coon Rapids,MN,55433-3838,Anoka
,,,Home and Community Based Services - Community Residential Setting,Conditional as of 04/23/2025,,Coon Rapids,MN,55433-5004,Anoka
,,,Family Child Care,Revoked as of 02/17/2023,,Coon Rapids,MN,55433-4861,Anoka
,,,Substance Use Disorder Treatment,Active,,Minneapolis,MN,55433-0000,Anoka
,,,Home and Community Based Services - Day Services Facility,Active,,Coon Rapids,MN,55433-4041,Anoka
,,,Adult Foster Care,Active,,Coon Rapids,MN,55433-2612,Anoka
,,,Family Child Care,Active,,Coon Rapids,MN,55433-1688,Anoka
,,,Home and Community Based Services,Active,,Coon Rapids,MN,55433-5870,Anoka
,,,Home and Community Based Services,Active,,Coon Rapids,MN,55433-3978,Anoka
,,,Home and Community Based Services - Community Residential Setting,Active,,Coon Rapids,MN,55433-1773,Anoka
,,,Adult Day Care Services,Active,,Minneapolis,MN,55433-3487,Anoka
,,,Home and Community Based Services - Day Services Facility,Active,,Coon Rapids,MN,55433-5848,Anoka
,,,Home and Community Based Services - Community Residential Setting,Active,,Coon Rapids,MN,55433-5142,Anoka
,,,Family Child Care,Active,,Coon Rapids,MN,55433-6342,Anoka
,,,Home and Community Based Services,Active,,Coon Rapids,MN,55433-5832,Anoka
,,,Family Child Care,Active,,Coon Rapids,MN,55433-4985,Anoka
,,,Family Child Care,Active,,Coon Rapids,MN,55433-1680,Anoka
,,,Child Foster Residence Setting,Active,,Coon Rapids,MN,55433-2933,Anoka
,,,Child Care Center,Active,,Coon Rapids,MN,55433-5537,Anoka
,,,Home and Community Based Services,Active,,Minneapolis,MN,55433-4235,Anoka
,,,Mental Health Clinic,Active,,Coon Rapids,MN,55433-0001,Anoka
,,,Family Child Care,Active,,Coon Rapids,MN,55433-4638,Anoka
,,,Substance Use Disorder Treatment,Active,,Coon Rapids,MN,55433-3662,Anoka
,,,Home and Community Based Services,Active,,Coon Rapids,MN,55433-3646,Anoka
,,,Home and Community Based Services - Community Residential Setting,Active,,Coon Rapids,MN,55433-2769,Anoka
,,,Family Child Care,Denied as of 03/12/2025,,Coon Rapids,MN,55433-4284,Anoka
,,,Home and Community Based Services - Community Residential Setting,Active,,Coon Rapids,MN,55433-6776,Anoka
,,,Certified Child Care Center,Active,,Minneapolis,MN,55433-5848,Anoka
,,,Family Child Care,Active,,Coon Rapids,MN,55433-2950,Anoka
,,,Home and Community Based Services - Community Residential Setting,Active,,Blaine,MN,55434-1110,Anoka
,,,Home and Community Based Services,Active,,Minneapolis,MN,55434-3371,Anoka
,,,Home and Community Based Services - Day Services Facility,Active,,Blaine,MN,55434-3371,Anoka
,,,Certified Child Care Center,Active,,Blaine,MN,55434-1802,Anoka
,,,Certified Child Care Center,Active,,Blaine,MN,55434-3141,Anoka
,,,Certified Child Care Center,Active,,Blaine,MN,55434-2637,Anoka
,,,Certified Child Care Center,Active,,Blaine,MN,55434-8012,Anoka
,,,Family Child Care,Closed as of 08/18/2025,,Blaine,MN,55434-3226,Anoka
,,,Home and Community Based Services,Active,,Blaine,MN,55434-1982,Anoka
,,,Children's Residential Facilities,Active,,Blaine,MN,55434-3925,Anoka
,,,Substance Use Disorder Treatment,Active,,Blaine,MN,55434,Anoka
,,,Family Child Care,Active,,Blaine,MN,55434-2644,Anoka
,,,Home and Community Based Services - Community Residential Setting,Active,,Blaine,MN,55434-2380,Anoka
,,,Home and Community Based Services,Active,,Blaine,MN,55434-4532,Anoka
,,,Adult Foster Care,Active,,Blaine,MN,55434-4511,Anoka
,,,Child Foster Residence Setting,Closed as of 10/15/2025,,Blaine,MN,55434-1163,Anoka
,,,Home and Community Based Services - Community Residential Setting,Active,,Blaine,MN,55434-2717,Anoka
,,,Home and Community Based Services - Community Residential Setting,Active,,Blaine,MN,55434-3745,Anoka
,,,Adult Foster Care,Active,,Blaine,MN,55434-2616,Anoka
,,,Family Child Care,Active,,Blaine,MN,55434-1856,Anoka
,,,Home and Community Based Services,Active,,Blaine,MN,55434-5503,Anoka
,,,Adult Foster Care,Active,,Blaine,MN,55434-4533,Anoka
,,,Child Care Center,Active,,Blaine,MN,55434-8013,Anoka
,,,Family Child Care,Active,,Blaine,MN,55434-7348,Anoka
,,,Home and Community Based Services,Active,,Blaine,MN,55434-1405,Anoka
,,,Family Child Care,Conditional as of 04/29/2025,,Blaine,MN,55434-3522,Anoka
,,,Home and Community Based Services,Active,,Blaine,MN,55434-1894,Anoka
,,,Home and Community Based Services,Active,,Blaine,MN,55434-4524,Anoka
,,,Home and Community Based Services - Community Residential Setting,Active,,Blaine,MN,55434-2801,Anoka
,,,Family Child Care,Active,,Blaine,MN,55434-2408,Anoka
,,,Home and Community Based Services,Active,,Blaine,MN,55434-2949,Anoka
,,,Adult Foster Care,Active,,Blaine,MN,55434-3180,Anoka
,,,Family Child Care,Active,,Blaine,MN,55434-3234,Anoka
,,,Home and Community Based Services,Active,,Blaine,MN,55434-3379,Anoka
,,,Child Care Center,Active,,Blaine,MN,55434-4180,Anoka
,,,Family Child Care,Active,,Blaine,MN,55434-3749,Anoka
,,,Family Child Care,Active,,Blaine,MN,55434-2677,Anoka
,,,Child Care Center,Active,,Blaine,MN,55434-1616,Anoka
,,,Family Child Care,Active,,Blaine,MN,55434-1777,Anoka
,,,Home and Community Based Services,Active,,Blaine,MN,55434-8026,Anoka
,,,Home and Community Based Services - Community Residential Setting,Active,,Blaine,MN,55434-1657,Anoka
,,,Family Child Care,Active,,Blaine,MN,55434-4026,Anoka
,,,Home and Community Based Services,Active,,Blaine,MN,55434-4547,Anoka
,,,Home and Community Based Services - Community Residential Setting,Active,,Blaine,MN,55434-3519,Anoka
,,,Home and Community Based Services - Community Residential Setting,Active,,Blaine,MN,55434-1312,Anoka
,,,Family Child Care,Active,,Blaine,MN,55434-4007,Anoka
,,,Child Care Center,Active,,Minneapolis,MN,55434-3931,Anoka
,,,Family Child Care,Active,,Blaine,MN,55434-2906,Anoka
,,,Family Child Care,Active,,Blaine,MN,55434-4014,Anoka
,,,Adult Foster Care,Active,,Blaine,MN,55434-1607,Anoka
,,,Home and Community Based Services,Active,,Minneapolis,MN,55434-3250,Anoka
,,,Family Child Care,Active,,Blaine,MN,55434-3059,Anoka
,,,Family Child Care,Closed as of 09/26/2025,,Blaine,MN,55434-2352,Anoka
,,,Family Child Care,Active,,Blaine,MN,55434-1884,Anoka
,,,Family Child Care,Active,,Blaine,MN,55434-3231,Anoka
,,,Family Child Care,Active,,Blaine,MN,55434-4076,Anoka
,,,Family Child Care,Active,,Blaine,MN,55434-3172,Anoka
,,,Home and Community Based Services - Community Residential Setting,Active,,Blaine,MN,55434-3021,Anoka
,,,Home and Community Based Services - Community Residential Setting,Active,,Blaine,MN,55434-2655,Anoka
,,,Home and Community Based Services - Community Residential Setting,Active,,Blaine,MN,55434-3035,Anoka
,,,Home and Community Based Services - Community Residential Setting,Active,,Blaine,MN,55434-1650,Anoka
,,,Home and Community Based Services - Community Residential Setting,Active,,Blaine,MN,55434-2355,Anoka
,,,Home and Community Based Services - Community Residential Setting,Active,,Blaine,MN,55434-4023,Anoka
,,,Home and Community Based Services - Community Residential Setting,Active,,Blaine,MN,55434-2581,Anoka
,,,Family Child Care,Active,,Blaine,MN,55434-3167,Anoka
,,,Family Child Care,Active,,Blaine,MN,55434-2950,Anoka
,,,Home and Community Based Services,Closed as of 09/05/2025,,Blaine,MN,55434-2539,Anoka
,,,Adult Foster Care,Active,,Blaine,MN,55434-3515,Anoka
,,,Family Child Care,Active,,Blaine,MN,55434-1667,Anoka
,,,Child Care Center,Active,,Blaine,MN,55434-5000,Anoka
,,,Child Care Center,Active,,Blaine,MN,55434-4153,Anoka
,,,Home and Community Based Services,Active,,Blaine,MN,55434-1708,Anoka
,,,Family Child Care,Active,,Blaine,MN,55434-2715,Anoka
,,,Home and Community Based Services,Active,,Blaine,MN,55434-4503,Anoka
,,,Family Child Care,Active,,Blaine,MN,55434-2509,Anoka
,,,Home and Community Based Services,Active,,Edina,MN,55435-4469,Hennepin
,,,Home and Community Based Services,Active,,Edina,MN,55435-5135,Hennepin
,,,Child Care Center,Active,,Edina,MN,55435,Hennepin
,,,Substance Use Disorder Treatment,Active,,Minneapolis,MN,55435-5832,Hennepin
,,,Home and Community Based Services,Active,,Edina,MN,55435-5216,Hennepin
,,,Child Care Center,Active,,Edina,MN,55435-2600,Hennepin
,,,Home and Community Based Services,Active,,Edina,MN,55435-5166,Hennepin
,,,Home and Community Based Services,Active,,Edina,MN,55435-2292,Hennepin
,,,Home and Community Based Services,Active,,Edina,MN,55435-4494,Hennepin
,,,Child Care Center,Active,,Edina,MN,55435-4805,Hennepin
,,,Child Care Center,Active,,Edina,MN,55435-5244,Hennepin
,,,Certified Child Care Center,Active,,Edina,MN,55435-4137,Hennepin
,,,Child Care Center,Active,,Edina,MN,55435-5942,Hennepin
,,,Home and Community Based Services,Active,,Edina,MN,55435-4802,Hennepin
,,,Home and Community Based Services,Active,,Minneapolis,MN,55435-1810,Hennepin
,,,Child Care Center,Active,,Edina,MN,55435-4102,Hennepin
,,,Home and Community Based Services,Active,,Minneapolis,MN,55435-5408,Hennepin
,,,Child Care Center,Active,,Edina,MN,55435-7000,Hennepin
,,,Home and Community Based Services,Active,,Minneapolis,MN,55435-5866,Hennepin
,,,Home and Community Based Services - Community Residential Setting,Active,,Edina,MN,55435-1548,Hennepin
,,,Home and Community Based Services,Active,,Bloomington,MN,55435-5930,Hennepin
,,,Home and Community Based Services - Community Residential Setting,Active,,Edina,MN,55435-0000,Hennepin
,,,Home and Community Based Services,Active,,Edina,MN,55435-4441,Hennepin
,,,Home and Community Based Services,Active,,Edina,MN,55435-5133,Hennepin
,,,Child Care Center,Active,,Bloomington,MN,55435-5427,Hennepin
,,,Substance Use Disorder Treatment,Active,,Edina,MN,55435-1808,Hennepin
,,,Home and Community Based Services,Active,,Edina,MN,55435-1878,Hennepin
,,,Home and Community Based Services,Active,,Edina,MN,55435-1810,Hennepin
,,,Home and Community Based Services - Community Residential Setting,Active,,Brooklyn Park,MN,55435-0000,Hennepin
,,,Home and Community Based Services,Active,,Minneapolis,MN,55435-1878,Hennepin
,,,Certified Child Care Center,Active,,Minneapolis,MN,55435-4701,Hennepin
,,,Child Care Center,Active,,Edina,MN,55435-2305,Hennepin
,,,Home and Community Based Services,Active,,Bloomington,MN,55435-5408,Hennepin
,,,Home and Community Based Services,Active,,Edina,MN,55435-5134,Hennepin
,,,Child Care Center,Active,,Edina,MN,55435-5113,Hennepin
,,,Home and Community Based Services,Active,,Edina,MN,55435-5188,Hennepin
,,,Home and Community Based Services,Active,,Edina,MN,55436-2315,Hennepin
,,,Child Care Center,Active,,Edina,MN,55436-2200,Hennepin
,,,Certified Child Care Center,Active,,Edina,MN,55436-2501,Hennepin
,,,Certified Child Care Center,Active,,Edina,MN,55436-2017,Hennepin
,,,Home and Community Based Services - Community Residential Setting,Active,,Edina,MN,55436-0000,Hennepin
,,,Family Child Care,Active,,Edina,MN,55436-2421,Hennepin
,,,Home and Community Based Services - Community Residential Setting,Active,,Minneapolis,MN,55436-2448,Hennepin
,,,Child Care Center,Active,,Edina,MN,55436-2633,Hennepin
,,,Home and Community Based Services,Active,,Edina,MN,55436-2350,Hennepin
,,,Child Care Center,Active,,Edina,MN,55436-2363,Hennepin
,,,Home and Community Based Services - Community Residential Setting,Active,,Edina,MN,55436-2127,Hennepin
,,,Home and Community Based Services - Residential Services Facility,Closed as of 08/10/2025,,Edina,MN,55436,Hennepin
,,,Adult Day Care Services,Pending Reopening as of 11/01/2025,,Edina,MN,55436-1606,Hennepin
,,,Home and Community Based Services,Active,,Edina,MN,55436-1673,Hennepin
,,,Child Care Center,Active,,Edina,MN,55436-1910,Hennepin
,,,Family Adult Day Services,Active,,Edina,MN,55436-2402,Hennepin
,,,Home and Community Based Services,Closed as of 09/17/2025,,Bloomington,MN,55437-3843,Hennepin
,,,Home and Community Based Services - Community Residential Setting,Active,,Bloomington,MN,55437-1270,Hennepin
,,,Home and Community Based Services - Community Residential Setting,Active,,Bloomington,MN,55437-2921,Hennepin
,,,Family Child Care,Active,,Bloomington,MN,55437-2323,Hennepin
,,,Home and Community Based Services - Community Residential Setting,Active,,Bloomington,MN,55437-2925,Hennepin
,,,Home and Community Based Services - Community Residential Setting,Active,,Bloomington,MN,55437-2614,Hennepin
,,,Home and Community Based Services - Community Residential Setting,Active,,Bloomington,MN,55437-2723,Hennepin
,,,Family Child Care,Active,,Bloomington,MN,55437-1353,Hennepin
,,,Home and Community Based Services,Active,,Bloomington,MN,55437-2857,Hennepin
,,,Child Care Center,Active,,Bloomington,MN,55437-2040,Hennepin
,,,Family Child Care,Active,,Bloomington,MN,55437-1911,Hennepin
,,,Home and Community Based Services - Community Residential Setting,Active,,Bloomington,MN,55437-0000,Hennepin
,,,Home and Community Based Services,Active,,Minneapolis,MN,55437-1933,Hennepin
,,,Home and Community Based Services,Active,,Bloomington,MN,55437-3805,Hennepin
,,,Certified Child Care Center,Active,,Bloomington,MN,55437-2052,Hennepin
,,,Certified Child Care Center,Active,,Bloomington,MN,55437-2610,Hennepin
,,,Certified Child Care Center,Active,,Bloomington,MN,55437-1337,Hennepin
,,,Certified Child Care Center,Active,,Bloomington,MN,55437-1910,Hennepin
,,,Home and Community Based Services - Community Residential Setting,Active,,Bloomington,MN,55437-1806,Hennepin
,,,Home and Community Based Services - Community Residential Setting,Active,,Bloomington,MN,55437-1811,Hennepin
,,,Home and Community Based Services - Community Residential Setting,Active,,Bloomington,MN,55437-1332,Hennepin
,,,Family Child Care,Closed as of 11/18/2025,,Bloomington,MN,55437-2986,Hennepin
,,,Child Care Center,Active,,Bloomington,MN,55437,Hennepin
,,,Home and Community Based Services - Community Residential Setting,Active,,Bloomington,MN,55437-1500,Hennepin
,,,Home and Community Based Services - Residential Services Facility,Active,,Minneapolis,MN,55437-2930,Hennepin
,,,Family Child Care,Active,,Bloomington,MN,55437-2018,Hennepin
,,,Home and Community Based Services - Residential Services Facility,Active,,Bloomington,MN,55437-2038,Hennepin
,,,Intensive Residential Treatment Services and Residential Crisis Stabilization,Active,,Bloomington,MN,55437-2766,Hennepin
,,,Family Child Care,Active,,Bloomington,MN,55437-2347,Hennepin
,,,Home and Community Based Services - Community Residential Setting,Active,,Bloomington,MN,55437-2811,Hennepin
,,,Home and Community Based Services - Community Residential Setting,Active,,Bloomington,MN,55437-3440,Hennepin
,,,Home and Community Based Services - Community Residential Setting,Active,,Bloomington,MN,55437-2559,Hennepin
,,,Home and Community Based Services,Active,,Bloomington,MN,55437-1562,Hennepin
,,,Child Care Center,Pending Reopening as of 08/15/2025,,Bloomington,MN,55437-3404,Hennepin
,,,Child Care Center,Active,,Minneapolis,MN,55437-1940,Hennepin
,,,Home and Community Based Services - Community Residential Setting,Active,,Bloomington,MN,55437-3251,Hennepin
,,,Home and Community Based Services - Community Residential Setting,Active,,Minneapolis,MN,55438-1934,Hennepin
,,,Family Child Care,Closed as of 09/01/2025,,Bloomington,MN,55438-1355,Hennepin
,,,Home and Community Based Services,Active,,Bloomington,MN,55438-1983,Hennepin
,,,Home and Community Based Services - Community Residential Setting,Active,,Bloomington,MN,55438-0000,Hennepin
,,,Family Child Care,Active,,Bloomington,MN,55438-2240,Hennepin
,,,Child Care Center,Active,,Bloomington,MN,55438-2393,Hennepin
,,,Home and Community Based Services - Community Residential Setting,Revoked as of 10/16/2025,,Bloomington,MN,55438-2169,Hennepin
,,,Home and Community Based Services - Community Residential Setting,Active,,Bloomington,MN,55438-2126,Hennepin
,,,Home and Community Based Services - Community Residential Setting,Active,,Bloomington,MN,55438-2324,Hennepin
,,,Adult Day Care Services,Active,,Bloomington,MN,55438,Hennepin
,,,Child Care Center,Active,,Edina,MN,55439-1631,Hennepin
,,,Substance Use Disorder Treatment,Active,,Minneapolis,MN,55439-3113,Hennepin
,,,Home and Community Based Services,Active,,Minneapolis,MN,55439-3111,Hennepin
,,,Home and Community Based Services,Active,,Edina,MN,55439-3005,Hennepin
,,,Home and Community Based Services,Active,,Minneapolis,MN,55439-3167,Hennepin
,,,Family Child Care,Active,,Edina,MN,55439-1244,Hennepin
,,,Home and Community Based Services,Active,,Edina,MN,55439-2018,Hennepin
,,,Child Care Center,Active,,Edina,MN,55439,Hennepin
,,,Home and Community Based Services,Active,,Edina,MN,55439-2326,Hennepin
,,,Certified Child Care Center,Active,,Edina,MN,55439-1124,Hennepin
,,,Child Care Center,Active,,Edina,MN,55439-2101,Hennepin
,,,Home and Community Based Services,Active,,Minneapolis,MN,55439-2430,Hennepin
,,,Home and Community Based Services - Community Residential Setting,Active,,Edina,MN,55439-0000,Hennepin
,,,Home and Community Based Services,Active,,Edina,MN,55439-2302,Hennepin
,,,Substance Use Disorder Treatment,Active,,Minneapolis,MN,55439-3115,Hennepin
,,,Family Child Care,Active,,Edina,MN,55439-1414,Hennepin
,,,Home and Community Based Services,Active,,Edina,MN,55439-2212,Hennepin
,,,Home and Community Based Services,Active,,Edina,MN,55439-2352,Hennepin
,,,Home and Community Based Services,Conditional Order issued /under Appeal/May Operate as of 09/11/2025,,Minneapolis,MN,55439-2301,Hennepin
,,,Child Care Center,Active,,Edina,MN,55439-1130,Hennepin
,,,Home and Community Based Services,Active,,Edina,MN,55439-2321,Hennepin
,,,Child Care Center,Active,,Edina,MN,55439-2373,Hennepin
,,,Home and Community Based Services,Active,,Edina,MN,55439-2918,Hennepin
,,,Home and Community Based Services,Active,,Edina,MN,55439-2316,Hennepin
,,,Child Care Center,Active,,Edina,MN,55439-2403,Hennepin
,,,Home and Community Based Services,Active,,Edina,MN,55439-1139,Hennepin
